"store_id","state_id","city_name","store_name","store_website","street_address","postal_code","country_id","telephone","lat","lng"
3,"CA","Palm Desert","Trader Joe's Palm Desert (3)","https://locations.traderjoes.com/ca/palm-desert/3","44250 Town Center Way","92260","US","+1 760-340-2291","33.727280","-116.397760"
4,"CA","South Pasadena","Trader Joe's South Pasadena (Fair Oaks) (4)","https://locations.traderjoes.com/ca/south-pasadena/4","1129 Fair Oaks Ave","91030","US","+1 323-784-1840","34.112870","-118.151100"
5,"CA","La Habra","Trader Joe's La Habra (5)","https://locations.traderjoes.com/ca/la-habra/5","2101 W. Imperial Hwy","90631","US","+1 562-266-1428","33.918560","-117.969650"
6,"CA","Santa Monica","Trader Joe's Santa Monica (6)","https://locations.traderjoes.com/ca/santa-monica/6","3212 Pico Blvd","90405","US","+1 310-581-0253","34.026310","-118.455810"
7,"CA","Los Angeles","Trader Joe's West Los Angeles (7)","https://locations.traderjoes.com/ca/los-angeles/7","10850 National Blvd","90064","US","+1 310-470-1917","34.030180","-118.421410"
8,"CA","Fresno","Trader Joe's Fresno (8)","https://locations.traderjoes.com/ca/fresno/8","8478 N. Friant Road","93720","US","+1 559-433-6478","36.858030","-119.782640"
9,"CA","Modesto","Trader Joe's Modesto (9)","https://locations.traderjoes.com/ca/modesto/9","3250 Dale Road","95356","US","+1 209-491-0445","37.687960","-121.049420"
11,"CA","Brea","Trader Joe's Brea (11)","https://locations.traderjoes.com/ca/brea/11","2500 E Imperial Hwy","92821","US","+1 714-257-1180","33.910060","-117.865480"
13,"CA","Santa Clarita","Trader Joe's Valencia (13)","https://locations.traderjoes.com/ca/santa-clarita/13","26517 Bouquet Canyon Rd","91350","US","+1 661-263-3796","34.428470","-118.538140"
14,"CA","Bakersfield","Trader Joe's Bakersfield (14)","https://locations.traderjoes.com/ca/bakersfield/14","8200 Stockdale Hwy","93311","US","+1 661-837-8863","35.354670","-119.093420"
15,"CA","Riverside","Trader Joe's Riverside (15)","https://locations.traderjoes.com/ca/riverside/15","6225 Riverside Plaza","92506","US","+1 951-781-2378","33.955870","-117.388400"
16,"CA","San Clemente","Trader Joe's San Clemente (16)","https://locations.traderjoes.com/ca/san-clemente/16","638 Camino de Los Mares","92673","US","+1 949-240-9996","33.458820","-117.651370"
17,"CA","Los Angeles","Trader Joe's Silver Lake (17)","https://locations.traderjoes.com/ca/los-angeles/17","2738 Hyperion Ave","90027","US","+1 323-665-6774","34.107670","-118.271790"
18,"CA","S. Pasadena","Trader Joe's South Pasadena (18)","https://locations.traderjoes.com/ca/s-pasadena/18","613 Mission St","91030","US","+1 626-441-6263","34.115380","-118.162910"
19,"CA","San Francisco","Trader Joe's San Francisco - North Beach (19)","https://locations.traderjoes.com/ca/san-francisco/19","401 Bay St","94133","US","+1 415-351-1013","37.805430","-122.413880"
20,"CA","La Jolla","Trader Joe's La Jolla (20)","https://locations.traderjoes.com/ca/la-jolla/20","8657 Villa la Jolla Dr","92037","US","+1 858-546-8629","32.866250","-117.231920"
21,"CA","San Diego","Trader Joe's San Diego - Pacific Beach (21)","https://locations.traderjoes.com/ca/san-diego/21","1640 Garnet Ave","92109","US","+1 858-581-9101","32.800690","-117.240650"
22,"CA","Oceanside","Trader Joe's Oceanside (22)","https://locations.traderjoes.com/ca/oceanside/22","2570 Vista Way","92054","US","+1 760-433-9994","33.183360","-117.331730"
23,"CA","San Diego","Trader Joe's San Diego - Carmel Mtn Ranch (23)","https://locations.traderjoes.com/ca/san-diego/23","11955 Carmel Mountain Rd","92128","US","+1 858-673-0526","32.981970","-117.075020"
24,"CA","La Mesa","Trader Joe's La Mesa (24)","https://locations.traderjoes.com/ca/la-mesa/24","5495 Grossmont Center Dr","91942","US","+1 619-466-0105","32.779300","-117.005600"
25,"CA","Encinitas","Trader Joe's Encinitas (25)","https://locations.traderjoes.com/ca/encinitas/25","115 N El Camino Real","92024","US","+1 760-634-2114","33.048090","-117.259400"
26,"CA","San Diego","Trader Joe's San Diego - Hillcrest (26)","https://locations.traderjoes.com/ca/san-diego/26","1090 University Avenue","92103","US","+1 619-296-3122","32.748680","-117.153510"
27,"CA","Rancho Santa Margarita","Trader Joe's Rancho Santa Margarita (27)","https://locations.traderjoes.com/ca/rancho-santa-margarita/27","30652 Santa Margarita Pkwy","92688","US","+1 949-888-3640","33.642600","-117.595480"
28,"CA","San Dimas","Trader Joe's San Dimas (28)","https://locations.traderjoes.com/ca/san-dimas/28","856 W Arrow Hwy","91773","US","+1 909-305-4757","34.105600","-117.824010"
29,"CA","Torrance","Trader Joe's Torrance - Rolling Hills Plaza (29)","https://locations.traderjoes.com/ca/torrance/29","2545 Pacific Coast Hwy","90505","US","+1 310-326-9520","33.790860","-118.330190"
30,"CA","Simi Valley","Trader Joe's Simi Valley (30)","https://locations.traderjoes.com/ca/simi-valley/30","2975-A Cochran St","93065","US","+1 805-520-3135","34.281060","-118.738610"
31,"CA","Los Angeles","Trader Joe's Los Angeles (31)","https://locations.traderjoes.com/ca/los-angeles/31","263 S La Brea Ave","90036","US","+1 323-965-1989","34.069140","-118.344360"
32,"CA","Pasadena","Trader Joe's Pasadena (East) (32)","https://locations.traderjoes.com/ca/pasadena/32","3035 E Huntington Dr","91107","US","+1 626-356-2963","34.127730","-118.089600"
33,"CA","Westchester","Trader Joe's Westchester (33)","https://locations.traderjoes.com/ca/westchester/33","8645 S Sepulveda","90045","US","+1 310-338-9238","33.958620","-118.396660"
34,"CA","Manhattan Beach","Trader Joe's Manhattan Beach Blvd (34)","https://locations.traderjoes.com/ca/manhattan-beach/34","1821 Manhattan Beach Blvd","90266","US","+1 310-372-1274","33.887540","-118.379670"
35,"CA","Costa Mesa","Trader Joe's Costa Mesa (35)","https://locations.traderjoes.com/ca/costa-mesa/35","640 W 17th St","92627","US","+1 949-642-5134","33.636680","-117.924940"
36,"CA","Culver City","Trader Joe's Culver City (36)","https://locations.traderjoes.com/ca/culver-city/36","9290 Culver Blvd","90232","US","+1 310-202-1108","34.025270","-118.393000"
37,"CA","Irvine","Trader Joe's Irvine -  Walnut Village Ctr (37)","https://locations.traderjoes.com/ca/irvine/37","14443 Culver Dr","92604","US","+1 949-857-8108","33.706230","-117.788280"
38,"CA","Redondo Bch.","Trader Joe's Redondo Beach (38)","https://locations.traderjoes.com/ca/redondo-bch-/38","1761 S Elena Ave","90277","US","+1 310-316-1745","33.818020","-118.385570"
39,"CA","Laguna Hills","Trader Joe's Laguna Hills (39)","https://locations.traderjoes.com/ca/laguna-hills/39","24231 Avenida De La Carlota","92653","US","+1 949-461-0927","33.609700","-117.703040"
40,"CA","West Hollywood","Trader Joe's West Hollywood (40)","https://locations.traderjoes.com/ca/west-hollywood/40","7310 Santa Monica Blvd","90046","US","+1 323-969-8048","34.090020","-118.349250"
41,"CA","San Luis Obispo","Trader Joe's San Luis Obispo (41)","https://locations.traderjoes.com/ca/san-luis-obispo/41","3977 Higuera Street","93401","US","+1 805-783-2780","35.245070","-120.673440"
42,"CA","La Canada","Trader Joe's La Canada (42)","https://locations.traderjoes.com/ca/la-canada/42","475 Foothill Blvd","91011","US","+1 818-790-6373","34.200550","-118.188950"
43,"CA","Long Beach","Trader Joe's Long Beach - PCH (43)","https://locations.traderjoes.com/ca/long-beach/43","6451 E Pacific Coast  Hwy","90803","US","+1 562-596-4388","33.756840","-118.108450"
44,"CA","Granada Hills","Trader Joe's Granada Hills (44)","https://locations.traderjoes.com/ca/granada-hills/44","11114 Balboa Blvd","91344","US","+1 818-368-6461","34.272680","-118.501680"
45,"CA","Ventura","Trader Joe's Ventura (45)","https://locations.traderjoes.com/ca/ventura/45","1795 S. Victoria Ave","93003","US","+1 805-650-9977","34.257330","-119.211170"
46,"CA","Orange","Trader Joe's Mall of Orange (46)","https://locations.traderjoes.com/ca/orange/46","2114 N Tustin St","92865","US","+1 714-283-5697","33.823210","-117.836450"
47,"CA","Huntington Beach","Trader Joe's Huntington Beach (47)","https://locations.traderjoes.com/ca/huntington-beach/47","18681 Main St","92648","US","+1 714-848-9640","33.692660","-117.992660"
48,"CA","Whittier","Trader Joe's Whittier (48)","https://locations.traderjoes.com/ca/whittier/48","15025 E Whittier Blvd","90603","US","+1 562-698-1642","33.949180","-118.005580"
49,"CA","Sherman Oaks","Trader Joe's Sherman Oaks (49)","https://locations.traderjoes.com/ca/sherman-oaks/49","14119 Riverside Dr","91423","US","+1 818-789-2771","34.157770","-118.440600"
50,"CA","West Hills","Trader Joe's West Hills (50)","https://locations.traderjoes.com/ca/west-hills/50","6751 Fallbrook Ave","91307","US","+1 818-347-2591","34.192590","-118.624080"
51,"CA","Pasadena","Trader Joe's Pasadena (51)","https://locations.traderjoes.com/ca/pasadena/51","610 S Arroyo Pkwy","91105","US","+1 626-568-9254","34.135170","-118.146910"
52,"CA","Montrose","Trader Joe's Montrose (52)","https://locations.traderjoes.com/ca/montrose/52","2462 Honolulu Ave","91020","US","+1 818-957-3613","34.206870","-118.232910"
53,"CA","Glendale","Trader Joe's Glendale (53)","https://locations.traderjoes.com/ca/glendale/53","103 E Glenoaks Blvd","91207","US","+1 818-507-8192","34.159810","-118.254710"
54,"CA","Toluca Lake","Trader Joe's Toluca Lake (54)","https://locations.traderjoes.com/ca/toluca-lake/54","10130 Riverside Dr","91602","US","+1 818-762-2787","34.151960","-118.351810"
55,"CA","Eagle Rock","Trader Joe's Eagle Rock (55)","https://locations.traderjoes.com/ca/eagle-rock/55","1566 Colorado Blvd","90041","US","+1 323-257-6422","34.139320","-118.200350"
56,"CA","Encino","Trader Joe's Encino (56)","https://locations.traderjoes.com/ca/encino/56","17640 Burbank Blvd","91316","US","+1 818-990-7751","34.171880","-118.517640"
57,"CA","Rancho Palos Verdes","Trader Joe's Rancho Palos Verdes - S. Western Ave. (57)","https://locations.traderjoes.com/ca/rancho-palos-verdes/57","28901 S Western Ave","90275","US","+1 310-832-1241","33.755840","-118.310270"
58,"CA","Westlake Village","Trader Joe's Westlake Village (58)","https://locations.traderjoes.com/ca/westlake-village/58","3835 E Thousand Oaks Blvd","91362","US","+1 805-494-5040","34.163910","-118.825080"
59,"CA","Santa Barbara","Trader Joe's Santa Barbara (59)","https://locations.traderjoes.com/ca/santa-barbara/59","222 North Milpas Street","93103","US","+1 805-560-1182","34.424670","-119.681810"
60,"CA","Concord","Trader Joe's Concord (60)","https://locations.traderjoes.com/ca/concord/60","1150 Concord Ave","94520","US","+1 925-689-2990","37.978380","-122.057530"
61,"CA","San Rafael","Trader Joe's San Rafael (61)","https://locations.traderjoes.com/ca/san-rafael/61","337 3rd St","94901","US","+1 415-454-9530","37.969610","-122.516380"
62,"CA","San Jose","Trader Joe's San Jose - Westgate West (62)","https://locations.traderjoes.com/ca/san-jose/62","5269 Prospect","95129","US","+1 408-446-5055","37.292920","-121.994230"
63,"CA","San Jose","Trader Joe's San Jose - Old Almaden (63)","https://locations.traderjoes.com/ca/san-jose/63","5353 Almaden Expressway #J-38","95118","US","+1 408-264-8120","37.251220","-121.878980"
64,"CA","Capitola","Trader Joe's Capitola (64)","https://locations.traderjoes.com/ca/capitola/64","3555 Clares St","95010","US","+1 831-464-0115","36.977440","-121.970580"
65,"CA","Danville","Trader Joe's Danville (65)","https://locations.traderjoes.com/ca/danville/65","85 Railroad Ave","94526","US","+1 925-838-5757","37.823100","-122.003250"
66,"CA","Pleasanton","Trader Joe's Pleasanton (66)","https://locations.traderjoes.com/ca/pleasanton/66","3903 Santa Rita Road","94588","US","+1 925-468-0763","37.696800","-121.876800"
67,"CA","San Mateo","Trader Joe's San Mateo - Grant St (67)","https://locations.traderjoes.com/ca/san-mateo/67","1820-22 S Grant Street","94402","US","+1 650-570-6140","37.554530","-122.302580"
68,"CA","Sunnyvale","Trader Joe's Sunnyvale (68)","https://locations.traderjoes.com/ca/sunnyvale/68","316 West El Camino Real","94087","US","+1 408-736-7573","37.368160","-122.036100"
69,"CA","Menlo Park","Trader Joe's Menlo Park (69)","https://locations.traderjoes.com/ca/menlo-park/69","720 Menlo Ave","94025","US","+1 650-323-2134","37.451370","-122.183430"
70,"CA","Sacramento","Trader Joe's Sacramento (70)","https://locations.traderjoes.com/ca/sacramento/70","2625 Marconi Ave","95821","US","+1 916-481-8797","38.618440","-121.400070"
71,"CA","Fair Oaks","Trader Joe's Fair Oaks (71)","https://locations.traderjoes.com/ca/fair-oaks/71","5309 Sunrise Blvd","95628","US","+1 916-863-1744","38.662800","-121.273880"
72,"CA","Emeryville","Trader Joe's Emeryville (72)","https://locations.traderjoes.com/ca/emeryville/72","5700 Christie Ave","94608","US","+1 510-658-8091","37.837070","-122.294360"
73,"CA","Campbell","Trader Joe's Campbell (73)","https://locations.traderjoes.com/ca/campbell/73","1875 Bascom Ave","95008","US","+1 408-369-7823","37.289550","-121.933560"
74,"CA","Daly City","Trader Joe's Daly City (74)","https://locations.traderjoes.com/ca/daly-city/74","417 Westlake Center","94015","US","+1 650-755-3825","37.700240","-122.482670"
75,"CA","Santa Rosa","Trader Joe's Santa Rosa - Cleveland Ave (75)","https://locations.traderjoes.com/ca/santa-rosa/75","3225 Cleveland Ave","95403","US","+1 707-525-1406","38.473590","-122.732170"
76,"CA","Stockton","Trader Joe's Stockton (76)","https://locations.traderjoes.com/ca/stockton/76","6535 Pacific Ave","95207","US","+1 209-951-7597","38.009080","-121.321250"
77,"CA","Fremont","Trader Joe's Fremont (77)","https://locations.traderjoes.com/ca/fremont/77","39324 Argonaut Way","94538","US","+1 510-794-1386","37.543550","-121.986110"
78,"CA","San Francisco","Trader Joe's San Francisco - 9th St (78)","https://locations.traderjoes.com/ca/san-francisco/78","555 9th St","94103","US","+1 415-863-1292","37.771020","-122.407310"
79,"CA","Pacific Grove","Trader Joe's Pacific Grove (79)","https://locations.traderjoes.com/ca/pacific-grove/79","1170 Forest Ave","93950","US","+1 831-656-0180","36.605550","-121.921800"
80,"CA","Roseville","Trader Joe's Roseville (80)","https://locations.traderjoes.com/ca/roseville/80","1117 Roseville Square","95678","US","+1 916-784-9084","38.746160","-121.273620"
81,"CA","Mountain View","Trader Joe's Mountain View (81)","https://locations.traderjoes.com/ca/mountain-view/81","590 Showers Dr","94040","US","+1 650-917-1013","37.401500","-122.107910"
82,"NV","Reno","Trader Joe's Reno (82)","https://locations.traderjoes.com/nv/reno/82","5035 S McCarran Blvd","89502","US","+1 775-826-1621","39.478740","-119.784130"
83,"CA","Concord","Trader Joe's Concord (83)","https://locations.traderjoes.com/ca/concord/83","785 Oak Grove Rd","94518","US","+1 925-521-1134","37.936830","-122.024740"
84,"CA","Castro Valley","Trader Joe's Castro Valley (84)","https://locations.traderjoes.com/ca/castro-valley/84","22224 Redwood Road","94546","US","+1 510-538-2738","37.684970","-122.073250"
85,"AZ","Glendale","Trader Joe's Glendale (85)","https://locations.traderjoes.com/az/glendale/85","8078 W Bell Rd","85308","US","+1 928-397-9921","33.640140","-112.231080"
86,"NV","Las Vegas","Trader Joe's Las Vegas - Summerlin (86)","https://locations.traderjoes.com/nv/las-vegas/86","7575 W Washington","89128","US","+1 702-242-8240","36.180710","-115.258150"
87,"AZ","Scottsdale","Trader Joe's N Scottsdale (87)","https://locations.traderjoes.com/az/scottsdale/87","7555 E Frank Lloyd Wright","85260","US","+1 480-367-8920","33.635960","-111.917170"
88,"AZ","Tucson","Trader Joe's Tucson - Crossroads (88)","https://locations.traderjoes.com/az/tucson/88","4766 E Grant Rd","85712","US","+1 520-323-4500","32.249800","-110.890970"
89,"AZ","Mesa","Trader Joe's Mesa (89)","https://locations.traderjoes.com/az/mesa/89","2050 E Baseline Rd","85204","US","+1 480-632-0951","33.380990","-111.787040"
90,"AZ","Phoenix","Trader Joe's Phoenix - Town & Country (90)","https://locations.traderjoes.com/az/phoenix/90","4821 N 20th St","85016","US","+1 602-912-9022","33.507180","-112.037860"
91,"AZ","Tempe","Trader Joe's ASU (91)","https://locations.traderjoes.com/az/tempe/91","940 E. University Drive","85281","US","+1 480-303-9974","33.422580","-111.924870"
92,"AZ","Surprise","Trader Joe's Surprise (92)","https://locations.traderjoes.com/az/surprise/92","14095 W Grand Ave","85374","US","+1 623-546-1640","33.651360","-112.367400"
93,"AZ","Tempe","Trader Joe's Tempe (93)","https://locations.traderjoes.com/az/tempe/93","6460 S McClintock Dr","85283","US","+1 480-838-4142","33.361740","-111.911370"
94,"AZ","Scottsdale","Trader Joe's Scottsdale (94)","https://locations.traderjoes.com/az/scottsdale/94","6202 N Scottsdale Rd","85253","US","+1 480-948-9886","33.529000","-111.927480"
95,"AZ","Tucson","Trader Joe's Tucson (95)","https://locations.traderjoes.com/az/tucson/95","1101 N Wilmot Rd","85712","US","+1 520-733-1313","32.237070","-110.858740"
96,"AZ","Oro Valley","Trader Joe's Oro Valley (96)","https://locations.traderjoes.com/az/oro-valley/96","7912 N Oracle","85704","US","+1 520-797-4207","32.350490","-110.973230"
97,"NV","Henderson","Trader Joe's Henderson (97)","https://locations.traderjoes.com/nv/henderson/97","2716 N Green Valley Pkwy","89014","US","+1 702-433-6773","36.069770","-115.081180"
98,"NV","Las Vegas","Trader Joe's Las Vegas - Centennial Hills (98)","https://locations.traderjoes.com/nv/las-vegas/98","5639 Centennial Ctr Blvd","89149","US","+1 702-396-3372","36.263760","-115.256900"
99,"CA","Redlands","Trader Joe's Redlands (99)","https://locations.traderjoes.com/ca/redlands/99","552 Orange St","92374","US","+1 909-798-3888","34.060620","-117.181170"
100,"CA","San Francisco","Trader Joe's San Francisco (100)","https://locations.traderjoes.com/ca/san-francisco/100","3 Masonic Ave","94118","US","+1 415-346-9964","37.783360","-122.447750"
101,"CA","Fairfield","Trader Joe's Fairfield (101)","https://locations.traderjoes.com/ca/fairfield/101","1350 Gateway Blvd","94533","US","+1 707-434-0144","38.264030","-122.052730"
102,"CA","Temecula","Trader Joe's Temecula (102)","https://locations.traderjoes.com/ca/temecula/102","40665 Winchester Rd","92591","US","+1 951-296-9964","33.528970","-117.156030"
103,"CA","Laguna Niguel","Trader Joe's Laguna Niguel - Ocean Ranch (103)","https://locations.traderjoes.com/ca/laguna-niguel/103","32351 Street of the Golden Lantern","92677","US","+1 949-493-8599","33.493020","-117.696610"
104,"CA","Cerritos","Trader Joe's Cerritos (104)","https://locations.traderjoes.com/ca/cerritos/104","12861 Towne Center Dr","90703","US","+1 562-402-5148","33.869380","-118.058300"
105,"CA","Escondido","Trader Joe's Escondido (105)","https://locations.traderjoes.com/ca/escondido/105","1885 S Centre City Pkwy","92025","US","+1 760-233-4020","33.100030","-117.074450"
106,"CA","Manhattan Beach","Trader Joe's Manhattan Beach - Rosecrans Blvd (106)","https://locations.traderjoes.com/ca/manhattan-beach/106","1800 Rosecrans Blvd","90266","US","+1 310-725-9800","33.900480","-118.380180"
107,"CA","Petaluma","Trader Joe's Petaluma (107)","https://locations.traderjoes.com/ca/petaluma/107","169 N McDowell Blvd","94954","US","+1 707-769-2782","38.248840","-122.629390"
108,"CA","El Cerrito","Trader Joe's El Cerrito (108)","https://locations.traderjoes.com/ca/el-cerrito/108","225 El Cerrito Plaza","94530","US","+1 510-524-7609","37.898850","-122.299550"
109,"CA","Alameda","Trader Joe's Alameda (109)","https://locations.traderjoes.com/ca/alameda/109","2217 South Shore Ctr","94501","US","+1 510-769-5450","37.757660","-122.251430"
110,"CA","Goleta","Trader Joe's Goleta (110)","https://locations.traderjoes.com/ca/goleta/110","5767 Calle Real","93117","US","+1 805-692-2234","34.441200","-119.824730"
111,"CA","Irvine","Trader Joe's Irvine - University Ctr (111)","https://locations.traderjoes.com/ca/irvine/111","4225 Campus Dr","92612","US","+1 949-509-6138","33.650330","-117.837770"
112,"CA","Monrovia","Trader Joe's Monrovia (112)","https://locations.traderjoes.com/ca/monrovia/112","604 W Huntington Dr","91016","US","+1 626-358-8884","34.137650","-118.012230"
113,"CA","Santa Ana","Trader Joe's Santa Ana (113)","https://locations.traderjoes.com/ca/santa-ana/113","3329 S Bristol St","92704","US","+1 714-424-9304","33.700960","-117.884810"
114,"CA","Camarillo","Trader Joe's Camarillo (114)","https://locations.traderjoes.com/ca/camarillo/114","363 Carmen Dr","93010","US","+1 805-388-1925","34.220110","-119.052900"
115,"CA","Lafayette","Trader Joe's Lafayette (115)","https://locations.traderjoes.com/ca/lafayette/115","3649 Mt Diablo Blvd","94549","US","+1 925-299-9344","37.890370","-122.127080"
116,"CA","Long Beach","Trader Joe's Long Beach - Bixby Knolls (116)","https://locations.traderjoes.com/ca/long-beach/116","4210 Long Beach Blvd","90807","US","+1 562-422-1020","33.835480","-118.188580"
117,"CA","Arroyo Grande","Trader Joe's Arroyo Grande (117)","https://locations.traderjoes.com/ca/arroyo-grande/117","955 Rancho Pkwy","93420","US","+1 805-474-6114","35.126250","-120.595070"
118,"CA","Cathedral City","Trader Joe's Cathedral City (118)","https://locations.traderjoes.com/ca/cathedral-city/118","67720 E Palm Canyon Dr","92234","US","+1 760-202-0090","33.789790","-116.482740"
119,"CA","Los Angeles","Trader Joe's West Los Angeles - Sepulveda (119)","https://locations.traderjoes.com/ca/los-angeles/119","3456 S Sepulveda Blvd","90034","US","+1 310-836-2458","34.020250","-118.422220"
120,"CA","Chula Vista","Trader Joe's Chula Vista (120)","https://locations.traderjoes.com/ca/chula-vista/120","878 Eastlake Pkwy","91914","US","+1 619-656-5370","32.651300","-116.970400"
121,"CA","Torrance","Trader Joe's Torrance - Hawthorne Blvd (121)","https://locations.traderjoes.com/ca/torrance/121","19720 Hawthorne Blvd","90503","US","+1 310-793-8585","33.852210","-118.353190"
122,"CA","Studio City","Trader Joe's Studio City (122)","https://locations.traderjoes.com/ca/studio-city/122","11976 Ventura Blvd","91604","US","+1 818-509-0168","34.143040","-118.392690"
123,"CA","Walnut Creek","Trader Joe's Walnut Creek (123)","https://locations.traderjoes.com/ca/walnut-creek/123","1372 S California Blvd","94596","US","+1 925-945-1674","37.893270","-122.060700"
124,"CA","Burbank","Trader Joe's Burbank (124)","https://locations.traderjoes.com/ca/burbank/124","214 E Alameda Ave","91502","US","+1 818-848-4299","34.174840","-118.299220"
125,"CA","Newport Beach","Trader Joe's Newport Beach (125)","https://locations.traderjoes.com/ca/newport-beach/125","8086 E Pacific Coast Hwy","92657","US","+1 949-494-7404","33.568700","-117.830660"
126,"CA","Mission Viejo","Trader Joe's Mission Viejo (126)","https://locations.traderjoes.com/ca/mission-viejo/126","25410 Marguerite Pkwy","92692","US","+1 949-581-5638","33.592760","-117.658510"
127,"CA","Los Altos","Trader Joe's Los Altos (127)","https://locations.traderjoes.com/ca/los-altos/127","2310 Homestead Rd","94024","US","+1 408-245-1917","37.337600","-122.067800"
128,"CA","Napa","Trader Joe's Napa (128)","https://locations.traderjoes.com/ca/napa/128","3654 Bel Aire Plaza","94558","US","+1 707-256-0806","38.322670","-122.305850"
129,"WA","Lynnwood","Trader Joe's Lynnwood (129)","https://locations.traderjoes.com/wa/lynnwood/129","19715 Highway 99","98036","US","+1 425-670-0623","47.819850","-122.314240"
130,"WA","Seattle","Trader Joe's Seattle - Capitol Hill (130)","https://locations.traderjoes.com/wa/seattle/130","1700 Madison St","98122","US","+1 206-322-7268","47.616010","-122.309310"
131,"WA","Bellevue","Trader Joe's Bellevue (131)","https://locations.traderjoes.com/wa/bellevue/131","15563 NE 24th St","98007","US","+1 425-641-5069","47.630780","-122.133290"
132,"WA","Kirkland","Trader Joe's Kirkland (132)","https://locations.traderjoes.com/wa/kirkland/132","12520 Totem Lake Blvd NE","98034","US","+1 425-814-9181","47.711980","-122.180470"
133,"WA","Burien","Trader Joe's Burien (133)","https://locations.traderjoes.com/wa/burien/133","15868 1st Ave S","98148","US","+1 206-901-9339","47.460120","-122.331520"
134,"WA","Federal Way","Trader Joe's Federal Way (134)","https://locations.traderjoes.com/wa/federal-way/134","1758 S 320th St","98003","US","+1 253-941-6138","47.316880","-122.310810"
135,"WA","Seattle","Trader Joe's Seattle - Queen Anne Hill (135)","https://locations.traderjoes.com/wa/seattle/135","1916 Queen Anne Ave N","98109","US","+1 206-284-2546","47.636420","-122.356680"
136,"WA","Vancouver","Trader Joe's Vancouver (136)","https://locations.traderjoes.com/wa/vancouver/136","305 SE Chkalov Dr","98683","US","+1 360-883-9000","45.619570","-122.554350"
137,"WA","Seattle","Trader Joe's Seattle - U District (137)","https://locations.traderjoes.com/wa/seattle/137","4555 Roosevelt Way NE","98105","US","+1 206-547-6299","47.662720","-122.317980"
138,"WA","Issaquah","Trader Joe's Issaquah (138)","https://locations.traderjoes.com/wa/issaquah/138","975 NW Gilman Blvd","98027","US","+1 425-557-6420","47.544100","-122.052220"
139,"WA","Everett","Trader Joe's Everett (139)","https://locations.traderjoes.com/wa/everett/139","1302 SE Everett Mall Way","98208","US","+1 425-464-5485","47.909980","-122.215500"
140,"WA","Redmond","Trader Joe's Redmond (140)","https://locations.traderjoes.com/wa/redmond/140","15932 Redmond Way","98052","US","+1 425-883-1624","47.675740","-122.127750"
141,"OR","Beaverton","Trader Joe's Beaverton (141)","https://locations.traderjoes.com/or/beaverton/141","11753 SW Beaverton Hillsdale Hwy","97005","US","+1 503-626-3794","45.488060","-122.797770"
142,"OR","Lake Oswego","Trader Joe's Lake Oswego (142)","https://locations.traderjoes.com/or/lake-oswego/142","15391 SW Bangy Rd","97035","US","+1 503-639-3238","45.413720","-122.743210"
143,"OR","Portland","Trader Joe's Portland SE (143)","https://locations.traderjoes.com/or/portland/143","4715 SE Cesar Chavez Blvd","97202","US","+1 503-777-1601","45.488790","-122.623590"
144,"OR","Portland","Trader Joe's Portland - Hollywood (144)","https://locations.traderjoes.com/or/portland/144","4121 NE Halsey St","97232","US","+1 503-284-4232","45.534680","-122.620810"
145,"OR","Eugene","Trader Joe's Eugene (145)","https://locations.traderjoes.com/or/eugene/145","85 Oakway Center","97401","US","+1 541-485-1744","44.065290","-123.075510"
146,"OR","Portland","Trader Joe's Portland NW (146)","https://locations.traderjoes.com/or/portland/146","2122 NW Glisan St","97210","US","+1 971-544-0788","45.526080","-122.694990"
147,"WA","Seattle","Trader Joe's Ballard (147)","https://locations.traderjoes.com/wa/seattle/147","4609 14th Ave NW","98107","US","+1 206-783-0498","47.662610","-122.374200"
148,"WA","University Place","Trader Joe's University Place (148)","https://locations.traderjoes.com/wa/university-place/148","3800 Bridgeport Way W","98466","US","+1 253-460-2672","47.222580","-122.539240"
149,"OR","Hillsboro","Trader Joe's Hillsboro (149)","https://locations.traderjoes.com/or/hillsboro/149","2285 NW 185th Ave","97124","US","+1 503-645-8321","45.536790","-122.869510"
150,"OR","Bend","Trader Joe's Bend (150)","https://locations.traderjoes.com/or/bend/150","63455 N Hwy 97","97701","US","+1 541-312-4198","44.105080","-121.296150"
151,"WA","Bellingham","Trader Joe's Bellingham (151)","https://locations.traderjoes.com/wa/bellingham/151","2410 James St","98225","US","+1 360-734-5166","48.762150","-122.463990"
152,"OR","Clackamas","Trader Joe's Clackamas (152)","https://locations.traderjoes.com/or/clackamas/152","9345 SE 82nd Ave","97086","US","+1 503-771-6300","45.455960","-122.580580"
153,"OR","Salem","Trader Joe's Salem (153)","https://locations.traderjoes.com/or/salem/153","4450 Commercial St SE","97302","US","+1 503-378-9042","44.889710","-123.032770"
154,"OR","Corvallis","Trader Joe's Corvallis (154)","https://locations.traderjoes.com/or/corvallis/154","1550 NW 9th St","97330","US","+1 541-753-0048","44.582490","-123.260020"
155,"OR","Medford","Trader Joe's Medford (155)","https://locations.traderjoes.com/or/medford/155","55 Rossanley Dr","97501","US","+1 541-608-4993","42.343520","-122.881610"
156,"WA","Olympia","Trader Joe's Olympia (156)","https://locations.traderjoes.com/wa/olympia/156","1530 Black Lake Blvd SW","98502","US","+1 360-352-7440","47.033260","-122.937670"
157,"WA","Seattle","Trader Joe's West Seattle (157)","https://locations.traderjoes.com/wa/seattle/157","4545 Fauntleroy Way SW","98116","US","+1 206-913-0013","47.561970","-122.381090"
158,"WA","Silverdale","Trader Joe's Silverdale (158)","https://locations.traderjoes.com/wa/silverdale/158","9991 Mickelberry Rd","98383","US","+1 360-307-7224","47.655500","-122.683010"
159,"WA","Spokane","Trader Joe's Spokane (159)","https://locations.traderjoes.com/wa/spokane/159","2975 East 29th Ave","99223","US","+1 509-534-1077","47.628920","-117.366780"
160,"WA","Sammamish","Trader Joe's Sammamish (160)","https://locations.traderjoes.com/wa/sammamish/160","490 228th Ave NE","98074","US","+1 425-836-0837","47.613840","-122.033810"
162,"WA","Bellevue","Trader Joe's Bellevue (162)","https://locations.traderjoes.com/wa/bellevue/162","416 116th Ave NE","98004","US","+1 425-454-9799","47.613800","-122.184770"
163,"WA","Kent","Trader Joe's Kent (163)","https://locations.traderjoes.com/wa/kent/163","12966 SE Kent-Kangley Rd","98030","US","+1 253-639-3419","47.360070","-122.166180"
164,"WA","Spokane","Trader Joe's Spokane N (164)","https://locations.traderjoes.com/wa/spokane/164","5520 N Division St","99208","US","+1 509-487-4188","47.708900","-117.409590"
165,"NM","Santa Fe","Trader Joe's Santa Fe (165)","https://locations.traderjoes.com/nm/santa-fe/165","530 W Cordova Rd","87505","US","+1 505-995-8145","35.673070","-105.953110"
166,"NM","Albuquerque","Trader Joe's Albuquerque (166)","https://locations.traderjoes.com/nm/albuquerque/166","8928 Holly Ave NE","87122","US","+1 505-796-0311","35.175210","-106.542940"
167,"NM","Albuquerque","Trader Joe's Albuquerque (167)","https://locations.traderjoes.com/nm/albuquerque/167","2200 Uptown Loop NE","87110","US","+1 505-883-3662","35.102330","-106.565330"
168,"OR","Portland","Trader Joe's Southwest Portland (168)","https://locations.traderjoes.com/or/portland/168","7215 SW Garden Home Road","97223","US","+1 503-244-4625","45.466220","-122.750890"
169,"OR","Tigard","Trader Joe's Tigard (169)","https://locations.traderjoes.com/or/tigard/169","16200 SW Pacific Hwy","97224","US","+1 503-443-6713","45.403770","-122.796490"
170,"CA","Millbrae","Trader Joe's Millbrae (170)","https://locations.traderjoes.com/ca/millbrae/170","765 Broadway","94030","US","+1 650-259-9142","37.603930","-122.396030"
171,"CA","Pasadena","Trader Joe's Hastings Ranch (171)","https://locations.traderjoes.com/ca/pasadena/171","467 N Rosemead Blvd","91107","US","+1 626-351-3399","34.153740","-118.078200"
172,"CA","Folsom","Trader Joe's Folsom (172)","https://locations.traderjoes.com/ca/folsom/172","850 East Bidwell","95630","US","+1 916-817-8820","38.672290","-121.155930"
173,"CA","West Hollywood","Trader Joe's West Hollywood (173)","https://locations.traderjoes.com/ca/west-hollywood/173","8611 Santa Monica Blvd","90069","US","+1 310-657-0152","34.088010","-118.379450"
174,"CA","San Carlos","Trader Joe's San Carlos (174)","https://locations.traderjoes.com/ca/san-carlos/174","1482 El Camino Real","94070","US","+1 650-594-2138","37.496640","-122.248270"
175,"CA","Sacramento","Trader Joe's Sacramento (175)","https://locations.traderjoes.com/ca/sacramento/175","5000 Folsom Blvd","95819","US","+1 916-456-1853","38.560480","-121.444740"
176,"CA","Yorba Linda","Trader Joe's Yorba Linda (176)","https://locations.traderjoes.com/ca/yorba-linda/176","19655 Yorba Linda Blvd","92886","US","+1 714-970-0116","33.889450","-117.792260"
177,"AZ","Phoenix","Trader Joe's Ahwatukee (177)","https://locations.traderjoes.com/az/phoenix/177","4025 E Chandler Blvd","85048","US","+1 480-759-2295","33.303960","-111.994420"
178,"CA","Santa Rosa","Trader Joe's Santa Rosa Ave (178)","https://locations.traderjoes.com/ca/santa-rosa/178","2100 Santa Rosa Ave","95407","US","+1 707-535-0788","38.417420","-122.711960"
179,"CA","Pasadena","Trader Joe's Pasadena - S Lake Ave (179)","https://locations.traderjoes.com/ca/pasadena/179","345 S Lake Ave","91101","US","+1 626-395-9553","34.139880","-118.133060"
180,"CA","Clovis","Trader Joe's Clovis (180)","https://locations.traderjoes.com/ca/clovis/180","1077 N Willow Ave","93611","US","+1 559-325-3120","36.849540","-119.728030"
181,"CA","Los Gatos","Trader Joe's Los Gatos (181)","https://locations.traderjoes.com/ca/los-gatos/181","15466 Los Gatos Blvd","95032","US","+1 408-356-2324","37.244250","-121.957820"
182,"CA","Davis","Trader Joe's Davis (182)","https://locations.traderjoes.com/ca/davis/182","885 Russell Blvd","95616","US","+1 530-757-2693","38.546680","-121.761320"
183,"CA","Santa Barbara","Trader Joe's Santa Barbara (183)","https://locations.traderjoes.com/ca/santa-barbara/183","3025 De La Vina St","93105","US","+1 805-563-7383","34.439020","-119.729100"
184,"CA","Chatsworth","Trader Joe's Chatsworth (184)","https://locations.traderjoes.com/ca/chatsworth/184","10330 Mason Ave","91311","US","+1 818-341-3010","34.258450","-118.578950"
185,"CA","Palmdale","Trader Joe's Palmdale (185)","https://locations.traderjoes.com/ca/palmdale/185","39507 10th St W","93551","US","+1 661-947-2890","34.600570","-118.147970"
186,"CA","Berkeley","Trader Joe's Berkeley (186)","https://locations.traderjoes.com/ca/berkeley/186","1885 University Ave","94703","US","+1 510-204-9074","37.871710","-122.273360"
187,"CA","South San Francisco","Trader Joe's South San Francisco (187)","https://locations.traderjoes.com/ca/south-san-francisco/187","301 MC Lellan Dr","94080","US","+1 650-583-6401","37.664760","-122.446110"
188,"CA","San Diego","Trader Joe's San Diego - Point Loma (188)","https://locations.traderjoes.com/ca/san-diego/188","2401 Truxtun Rd","92106","US","+1 619-758-9272","32.735740","-117.216660"
189,"CA","La Quinta","Trader Joe's La Quinta (189)","https://locations.traderjoes.com/ca/la-quinta/189","46400 Washington St","92253","US","+1 760-777-1553","33.711980","-116.294290"
190,"CA","Elk Grove","Trader Joe's Elk Grove (190)","https://locations.traderjoes.com/ca/elk-grove/190","9670 Bruceville Road","95757","US","+1 916-686-9980","38.406610","-121.420440"
191,"AZ","Tucson","Trader Joe's Tucson - Campbell & Limberlost (191)","https://locations.traderjoes.com/az/tucson/191","4209 N Campbell Ave","85719","US","+1 520-325-0069","32.283360","-110.944710"
192,"CA","Los Angeles","Trader Joe's Sunset Blvd (192)","https://locations.traderjoes.com/ca/los-angeles/192","8000 W Sunset Blvd","90046","US","+1 323-822-7663","34.097680","-118.364790"
193,"CA","Santa Cruz","Trader Joe's Santa Cruz (193)","https://locations.traderjoes.com/ca/santa-cruz/193","700 Front St","95060","US","+1 831-425-0140","36.974600","-122.025000"
194,"CA","Long Beach","Trader Joe's Long Beach - Bellflower Blvd (194)","https://locations.traderjoes.com/ca/long-beach/194","2222 North Bellflower Blvd","90815","US","+1 562-596-2514","33.796580","-118.122900"
195,"CA","Aliso Viejo","Trader Joe's Aliso Viejo (195)","https://locations.traderjoes.com/ca/aliso-viejo/195","26541 Aliso Creek Rd","92656","US","+1 949-643-5531","33.577330","-117.724560"
196,"CA","Thousand Oaks","Trader Joe's Thousand Oaks (196)","https://locations.traderjoes.com/ca/thousand-oaks/196","451 Avenida De Los Arboles","91360","US","+1 805-492-7107","34.218790","-118.869160"
197,"CA","Tustin","Trader Joe's Tustin (197)","https://locations.traderjoes.com/ca/tustin/197","1198 Irvine Blvd.","92780","US","+1 714-505-3289","33.747750","-117.809000"
198,"CA","Novato","Trader Joe's Novato (198)","https://locations.traderjoes.com/ca/novato/198","7514 Redwood Blvd","94945","US","+1 415-898-9359","38.111800","-122.568220"
199,"CA","Chico","Trader Joe's Chico (199)","https://locations.traderjoes.com/ca/chico/199","801 East Ave","95926","US","+1 530-343-9920","39.760370","-121.846560"
200,"CA","San Francisco","Trader Joe's San Francisco - Nob Hill (200)","https://locations.traderjoes.com/ca/san-francisco/200","1095 Hyde St","94109","US","+1 415-292-7665","37.790610","-122.417820"
201,"CA","Brentwood","Trader Joe's Brentwood (201)","https://locations.traderjoes.com/ca/brentwood/201","5451 Lone Tree Way","94513","US","+1 925-516-3044","37.960880","-121.750060"
202,"CA","Morgan Hill","Trader Joe's Morgan Hill (202)","https://locations.traderjoes.com/ca/morgan-hill/202","17035 Laurel Rd","95037","US","+1 408-778-6409","37.131530","-121.638390"
203,"CA","Oakland","Trader Joe's Oakland - Lakeshore (203)","https://locations.traderjoes.com/ca/oakland/203","3250 Lakeshore Ave","94610","US","+1 510-238-9076","37.809900","-122.244480"
204,"CA","Monterey","Trader Joe's Monterey (204)","https://locations.traderjoes.com/ca/monterey/204","570 Munras Ave","93940","US","+1 831-372-2010","36.596580","-121.894350"
205,"CA","Marina Del Rey","Trader Joe's Marina Del Rey (205)","https://locations.traderjoes.com/ca/marina-del-rey/205","4675 Admiralty Way","90292","US","+1 310-301-4461","33.979610","-118.441270"
206,"CA","Los Angeles","Trader Joe's Hollywood (206)","https://locations.traderjoes.com/ca/los-angeles/206","1600 N Vine St","90028","US","+1 323-856-0689","34.100000","-118.326470"
207,"CA","Palo Alto","Trader Joe's Palo Alto (207)","https://locations.traderjoes.com/ca/palo-alto/207","855 El Camino Real","94301","US","+1 650-327-7018","37.437990","-122.159560"
208,"CA","Livermore","Trader Joe's Livermore (208)","https://locations.traderjoes.com/ca/livermore/208","1122 A East Stanley Blvd","94550","US","+1 925-243-1947","37.680180","-121.781520"
209,"CA","Woodland Hills","Trader Joe's Woodland Hills (209)","https://locations.traderjoes.com/ca/woodland-hills/209","21055 Ventura Blvd","91364","US","+1 818-712-9475","34.167090","-118.592490"
210,"CA","Irvine","Trader Joe's Irvine - Woodbury Town Center (210)","https://locations.traderjoes.com/ca/irvine/210","6222 Irvine Blvd","92620","US","+1 949-551-6402","33.700260","-117.741090"
211,"CA","Templeton","Trader Joe's Templeton (211)","https://locations.traderjoes.com/ca/templeton/211","1111 Rossi Road","93465","US","+1 805-434-9562","35.541960","-120.715160"
212,"CA","San Jose","Trader Joe's San Jose - Coleman Ave (212)","https://locations.traderjoes.com/ca/san-jose/212","635 Coleman Ave","95110","US","+1 408-298-9731","37.340980","-121.909640"
213,"CA","Corona","Trader Joe's Corona (213)","https://locations.traderjoes.com/ca/corona/213","2790 Cabot Dr","92883","US","+1 951-603-0299","33.812390","-117.506020"
214,"CA","Claremont","Trader Joe's Claremont (214)","https://locations.traderjoes.com/ca/claremont/214","475 W Foothill Blvd","91711","US","+1 909-625-8784","34.107240","-117.721680"
215,"CA","Los Angeles","Trader Joe's Olympic Blvd (215)","https://locations.traderjoes.com/ca/los-angeles/215","11755 Olympic Blvd","90064","US","+1 310-477-5949","34.033830","-118.449220"
216,"CA","Chino Hills","Trader Joe's Chino Hills (216)","https://locations.traderjoes.com/ca/chino-hills/216","13911 Peyton Drive","91709","US","+1 909-627-1404","34.000530","-117.732040"
217,"CA","Rancho Cucamonga","Trader Joe's Rancho Cucamonga (217)","https://locations.traderjoes.com/ca/rancho-cucamonga/217","6401 Haven Ave","91737","US","+1 909-476-1410","34.137670","-117.574340"
218,"CA","Ventura","Trader Joe's Ventura - Midtown (218)","https://locations.traderjoes.com/ca/ventura/218","103 S Mills Rd","93003","US","+1 805-658-2664","34.271490","-119.248900"
219,"CA","Redding","Trader Joe's Redding (219)","https://locations.traderjoes.com/ca/redding/219","845 Browning St","96003","US","+1 530-223-4875","40.591820","-122.357220"
220,"CA","Carlsbad","Trader Joe's Carlsbad (220)","https://locations.traderjoes.com/ca/carlsbad/220","2629 Gateway Rd","92009","US","+1 760-603-8473","33.126710","-117.254570"
221,"CA","San Diego","Trader Joe's Scripps Ranch (221)","https://locations.traderjoes.com/ca/san-diego/221","9850 Hibert St","92131","US","+1 858-549-9185","32.914280","-117.115110"
222,"CA","San Diego","Trader Joe's Mission Valley (222)","https://locations.traderjoes.com/ca/san-diego/222","1072 Camino Del Rio North","92108","US","+1 619-297-0749","32.766030","-117.155270"
223,"CA","San Diego","Trader Joe's Del Mar (223 )","https://locations.traderjoes.com/ca/san-diego/223","13480 Highlands Place","92130","US","+1 858-755-7130","32.961230","-117.191310"
224,"CA","San Diego","Trader Joe's San Diego - SDSU (224)","https://locations.traderjoes.com/ca/san-diego/224","5140 College Ave","92115","US","+1 619-229-9092","32.771900","-117.070280"
225,"CA","San Francisco","Trader Joe's San Francisco - Pacific Place (225)","https://locations.traderjoes.com/ca/san-francisco/225","10 4th Street","94103","US","+1 415-536-7801","37.785230","-122.405980"
226,"CA","San Francisco","Trader Joe's San Francisco (Hayes Valley) (226)","https://locations.traderjoes.com/ca/san-francisco/226","555 Fulton St","94102","US","+1 415-718-0175","37.778270","-122.425960"
228,"CA","Rocklin","Trader Joe's Rocklin (228)","https://locations.traderjoes.com/ca/rocklin/228","5116 Commons Dr.","95677","US","+1 916-660-9820","38.802910","-121.209100"
229,"CA","Milpitas","Trader Joe's Milpitas (229)","https://locations.traderjoes.com/ca/milpitas/229","1306 Great Mall Pkwy","95035","US","+1 408-942-6957","37.412320","-121.900040"
230,"CA","Pinole","Trader Joe's Pinole (230)","https://locations.traderjoes.com/ca/pinole/230","2742 Pinole Valley Rd","94564","US","+1 510-222-3501","37.995210","-122.285820"
231,"CA","Oakland","Trader Joe's Oakland - Rockridge (231)","https://locations.traderjoes.com/ca/oakland/231","5727 College Ave","94618","US","+1 510-923-9428","37.845530","-122.252520"
232,"CA","San Jose","Trader Joe's San Jose - Bollinger (232)","https://locations.traderjoes.com/ca/san-jose/232","7250 Bollinger Rd","95129","US","+1 408-873-7384","37.311780","-122.030910"
233,"CA","Rancho Palos Verdes","Trader Joe's Rancho Palos Verdes (233)","https://locations.traderjoes.com/ca/rancho-palos-verdes/233","31176 Hawthorne Blvd","90275","US","+1 310-544-1727","33.749150","-118.407090"
234,"CA","Los Angeles","Trader Joe's Westwood (234)","https://locations.traderjoes.com/ca/los-angeles/234","1000 Glendon Ave","90024","US","+1 310-824-1495","34.062170","-118.443960"
235,"CA","Greenbrae","Trader Joe's Larkspur (235)","https://locations.traderjoes.com/ca/greenbrae/235","2052 Redwood Hwy","94904","US","+1 415-945-7955","37.937900","-122.514890"
236,"CA","San Francisco","Trader Joe's San Francisco - Stonestown (236)","https://locations.traderjoes.com/ca/san-francisco/236","265 Winston Dr","94132","US","+1 415-665-1835","37.726510","-122.476180"
237,"CA","Los Angeles","Trader Joe's Los Angeles - Burton Way (237)","https://locations.traderjoes.com/ca/los-angeles/237","8500 Burton Way","90048","US","+1 310-248-2984","34.071170","-118.377020"
239,"CA","Santa Maria","Trader Joe's Santa Maria (239)","https://locations.traderjoes.com/ca/santa-maria/239","1303 S Bradley Rd","93454","US","+1 805-925-1657","34.937660","-120.420890"
240,"CA","Los Angeles","Trader Joe's Los Angeles - 3rd & Fairfax (240)","https://locations.traderjoes.com/ca/los-angeles/240","175 South Fairfax Ave","90036","US","+1 323-931-4012","34.072480","-118.361740"
241,"CA","Huntington Beach","Trader Joe's Huntington Beach - Brookhurst (241)","https://locations.traderjoes.com/ca/huntington-beach/241","21431 Brookhurst St","92646","US","+1 714-968-4070","33.651270","-117.954820"
242,"CA","Cypress","Trader Joe's Cypress (Rossmoor) (242)","https://locations.traderjoes.com/ca/cypress/242","5245 Katella Ave.","90720","US","+1 714-220-4930","33.804190","-118.040960"
243,"CA","Thousand Oaks","Trader Joe's Newbury Park (243)","https://locations.traderjoes.com/ca/thousand-oaks/243","125 N Reino Road","91320","US","+1 805-375-1984","34.180120","-118.952820"
244,"CA","Huntington Beach","Trader Joe's Huntington Harbour (244)","https://locations.traderjoes.com/ca/huntington-beach/244","16821 Algonquin St","92649","US","+1 714-846-7307","33.717760","-118.050470"
245,"CA","San Mateo","Trader Joe's San Mateo - Hillsdale (245)","https://locations.traderjoes.com/ca/san-mateo/245","45 W Hillsdale Blvd","94403","US","+1 650-286-1509","37.536030","-122.298710"
246,"CA","San Ramon","Trader Joe's San Ramon (246)","https://locations.traderjoes.com/ca/san-ramon/246","300 Market Place","94583","US","+1 925-275-8140","37.764190","-121.952080"
247,"CA","Agoura Hills","Trader Joe's Agoura Hills (247)","https://locations.traderjoes.com/ca/agoura-hills/247","28941 Canwood St","91301","US","+1 818-865-8217","34.146350","-118.756500"
248,"CA","Hermosa Beach","Trader Joe's Hermosa Beach (248)","https://locations.traderjoes.com/ca/hermosa-beach/248","1100 Pacific Coast Hwy","90254","US","+1 310-318-1767","33.863690","-118.392550"
249,"CA","San Juan Capistrano","Trader Joe's San Juan Capistrano (249)","https://locations.traderjoes.com/ca/san-juan-capistrano/249","32151 Camino Capistrano","92675","US","+1 949-496-4150","33.496070","-117.663340"
250,"CA","Los Angeles","Trader Joe's USC Village (250)","https://locations.traderjoes.com/ca/los-angeles/250","3131 S Hoover Street","90089","US","+1 213-749-1497","34.026130","-118.284480"
251,"CA","Culver City","Trader Joe's Culver City (251)","https://locations.traderjoes.com/ca/culver-city/251","6150 Slauson Ave","90230","US","+1 310-313-0441","33.988170","-118.392700"
252,"CA","North Hollywood","Trader Joe's North Hollywood (252)","https://locations.traderjoes.com/ca/north-hollywood/252","6130 Laurel Canyon Bl","91606","US","+1 818-762-2963","34.181750","-118.394520"
253,"CA","Santa Monica","Trader Joe's Wilshire (253)","https://locations.traderjoes.com/ca/santa-monica/253","2300 Wilshire Blvd","90403","US","+1 310-264-2223","34.033290","-118.480240"
254,"CA","Calabasas","Trader Joe's Calabasas (254)","https://locations.traderjoes.com/ca/calabasas/254","23741 Calabasas Rd.","91302","US","+1 818-591-6758","34.155650","-118.644680"
256,"CA","Santa Monica","Trader Joe's Santa Monica (256)","https://locations.traderjoes.com/ca/santa-monica/256","500 Broadway","90401","US","+1 310-912-6877","34.015590","-118.491820"
257,"CA","Ladera Ranch","Trader Joe's Ladera Ranch (257)","https://locations.traderjoes.com/ca/ladera-ranch/257","27542 Antonio Pkwy","92694","US","+1 949-239-6429","33.562580","-117.628180"
258,"CA","Murrieta","Trader Joe's Murrieta (258)","https://locations.traderjoes.com/ca/murrieta/258","40388 Murrieta Hot Springs Rd","92563","US","+1 951-528-5115","33.554340","-117.175950"
259,"CA","Vista","Trader Joe's Vista (259)","https://locations.traderjoes.com/ca/vista/259","1861 University Dr","92083","US","+1 760-502-9816","33.170160","-117.218280"
260,"CA","Santee","Trader Joe's Santee (260)","https://locations.traderjoes.com/ca/santee/260","9680 Mission Gorge Rd","92071","US","+1 619-812-3705","32.839780","-116.986220"
261,"CA","Marina","Trader Joe's Marina (261)","https://locations.traderjoes.com/ca/marina/261","150 10th St","93933","US","+1 831-281-7247","36.665100","-121.810680"
263,"CA","Santa Clarita","Trader Joe's Canyon Country (263)","https://locations.traderjoes.com/ca/santa-clarita/263","19037 Golden Valley Rd","91387","US","+1 661-276-1430","34.394350","-118.461490"
264,"CA","Tarzana","Trader Joe's Tarzana (264)","https://locations.traderjoes.com/ca/tarzana/264","18700 Ventura Blvd","91356","US","","34.170530","-118.540920"
265,"CA","Poway","Trader Joe's Poway (265)","https://locations.traderjoes.com/ca/poway/265","13644 Poway Rd","92064","US","+1 858-294-6131","32.957740","-117.035460"
266,"CA","Roseville","Trader Joe's Roseville - North (266)","https://locations.traderjoes.com/ca/roseville/266","10261 Fairway Dr","95678","US","+1 279-217-4579","38.787760","-121.281510"
267,"CA","Sherman Oaks","Trader Joe's Sherman Oaks 2 (267)","https://locations.traderjoes.com/ca/sherman-oaks/267","14140 Riverside Dr","91423","US","","34.157470","-118.441330"
270,"WA","Shoreline","Trader Joe's Shoreline (270)","https://locations.traderjoes.com/wa/shoreline/270","1201 N 175th St","98133","US","+1 206-542-5336","47.754780","-122.343280"
271,"WA","Vancouver","Trader Joe's Vancouver (Salmon Creek) (271)","https://locations.traderjoes.com/wa/vancouver/271","14007 NE 10th Ave","98685","US","+1 360-512-2792","45.723530","-122.661380"
272,"WA","Vancouver","Trader Joe's Vancouver (East) (272)","https://locations.traderjoes.com/wa/vancouver/272","16701 Mill Plain Blvd","98683","US","+1 360-322-3554","45.615160","-122.499300"
273,"WA","Seattle","Trader Joe's Seattle - Greenwood (273)","https://locations.traderjoes.com/wa/seattle/273","8726 Greenwood Ave","98103","US","","47.693380","-122.355140"
274,"WA","Bellingham","Trader Joe's Bellingham - North (274)","https://locations.traderjoes.com/wa/bellingham/274","4255 Meridian St","98226","US","","48.795600","-122.487820"
275,"OR","Milwaukie","Trader Joe's Milwaukie (275)","https://locations.traderjoes.com/or/milwaukie/275","15574 SE McLoughlin Blvd","97267","US","+1 971-365-7604","45.411220","-122.626690"
278,"NV","Reno","Trader Joe's Reno (South) (278)","https://locations.traderjoes.com/nv/reno/278","13945 S Virginia St","89511","US","+1 775-249-6301","39.406010","-119.748600"
279,"NV","Sparks","Trader Joe's Sparks (279)","https://locations.traderjoes.com/nv/sparks/279","185 Los Altos Pkwy","89436","US","+1 775-259-1634","39.580920","-119.741240"
280,"NV","Henderson","Trader Joe's Anthem (280)","https://locations.traderjoes.com/nv/henderson/280","10345 S Eastern Ave","89052","US","+1 702-407-8673","36.000930","-115.109220"
281,"NV","Carson City","Trader Joe's Carson City (281)","https://locations.traderjoes.com/nv/carson-city/281","3790 US Hwy 395 S","89705","US","+1 775-267-2486","39.112860","-119.776270"
282,"AZ","Phoenix","Trader Joe's Paradise Valley (282)","https://locations.traderjoes.com/az/phoenix/282","4726 East Shea Blvd","85028","US","+1 602-485-7788","33.583180","-111.979130"
283,"AZ","Prescott","Trader Joe's Prescott (283)","https://locations.traderjoes.com/az/prescott/283","252 N Lee Blvd","86303","US","+1 928-443-9075","34.548690","-112.405300"
284,"NV","Las Vegas","Trader Joe's Las Vegas - Downtown Summerlin (284)","https://locations.traderjoes.com/nv/las-vegas/284","2315 Summa Dr","89135","US","+1 702-242-0597","36.146580","-115.335350"
285,"AZ","Gilbert","Trader Joe's Gilbert (SanTan) (285)","https://locations.traderjoes.com/az/gilbert/285","1779 E. Williams Field Rd.","85295","US","+1 480-857-9878","33.306440","-111.751700"
286,"AZ","Queen Creek","Trader Joe's Queen Creek (286)","https://locations.traderjoes.com/az/queen-creek/286","21186 S. Ellsworth Loop Rd","85142","US","+1 480-877-7213","33.256150","-111.638570"
287,"AZ","Chandler","Trader Joe's Chandler (287)","https://locations.traderjoes.com/az/chandler/287","3961 S Arizona Ave","85248","US","+1 520-453-3452","33.248850","-111.840610"
300,"CO","Denver","Trader Joe's Denver Grocery (300)","https://locations.traderjoes.com/co/denver/300","750 N Colorado Blvd","80206","US","+1 303-321-1003","39.728530","-104.940410"
301,"CO","Boulder","Trader Joe's Boulder (301)","https://locations.traderjoes.com/co/boulder/301","1906 28th St","80301","US","+1 303-443-0160","40.020170","-105.257930"
302,"CO","Denver","Trader Joe's Denver (302)","https://locations.traderjoes.com/co/denver/302","661 Logan Street","80203","US","+1 303-318-7112","39.726770","-104.982540"
303,"CO","Greenwood Village","Trader Joe's Greenwood Village (303)","https://locations.traderjoes.com/co/greenwood-village/303","5910 S University Blvd","80121","US","+1 303-730-3848","39.608350","-104.958070"
304,"CO","Fort Collins","Trader Joe's Fort Collins (304)","https://locations.traderjoes.com/co/fort-collins/304","3500 S College Ave","80525","US","+1 970-223-3560","40.539380","-105.075480"
305,"CO","Colorado Springs","Trader Joe's Colorado Springs (305)","https://locations.traderjoes.com/co/colorado-springs/305","5342 N Nevada Ave","80918","US","+1 719-264-0123","38.907290","-104.817290"
306,"CO","Littleton","Trader Joe's Littleton (306)","https://locations.traderjoes.com/co/littleton/306","8055 West Bowles Ave","80123","US","+1 720-981-4563","39.611320","-105.087840"
309,"CO","Parker","Trader Joe's Parker (309)","https://locations.traderjoes.com/co/parker/309","18374 Cottonwood Drive","80138","US","+1 720-851-0549","39.556480","-104.777990"
310,"CO","Denver","Trader Joe's Denver Wine Shop (310)","https://locations.traderjoes.com/co/denver/310","790 N Colorado Blvd","80206","US","+1 303-321-3245","39.729020","-104.940430"
312,"CA","Northridge","Trader Joe's Northridge (312)","https://locations.traderjoes.com/ca/northridge/312","9224 Reseda Blvd","91325","US","","34.238070","-118.535680"
315,"CO","Colorado Springs","Trader Joe's Colorado Springs Wine Shop (315)","https://locations.traderjoes.com/co/colorado-springs/315","5338 N Nevada Avenue","80918","US","+1 719-266-6838","38.905070","-104.817300"
350,"UT","Salt Lake City","Trader Joe's Salt Lake City (350)","https://locations.traderjoes.com/ut/salt-lake-city/350","634 East 400 South","84102","US","+1 801-359-2462","40.760260","-111.873090"
351,"UT","Cottonwood Heights","Trader Joe's Cottonwood Heights (351)","https://locations.traderjoes.com/ut/cottonwood-heights/351","6989 S 1300 E","84047","US","+1 801-562-3024","40.623590","-111.854120"
352,"UT","Orem","Trader Joe's Orem (352)","https://locations.traderjoes.com/ut/orem/352","440 East Park Avenue","84097","US","+1 801-224-1453","40.276340","-111.684750"
353,"UT","Draper","Trader Joe's Draper (353)","https://locations.traderjoes.com/ut/draper/353","11477 S. State St.","84020","US","+1 801-571-0987","40.542800","-111.891090"
354,"UT","Salt Lake City","Trader Joe's Salt Lake City (Sugar House) (354)","https://locations.traderjoes.com/ut/salt-lake-city/354","2160 S 700 E","84106","US","+1 801-720-8834","40.724030","-111.872240"
360,"ID","Boise","Trader Joe's Boise (360)","https://locations.traderjoes.com/id/boise/360","300 S Capitol Blvd","83702","US","+1 208-336-7282","43.613110","-116.203710"
361,"ID","Meridian","Trader Joe's Meridian (361)","https://locations.traderjoes.com/id/meridian/361","2986 N. Eagle RD.","83646","US","+1 208-506-2978","43.632030","-116.352150"
362,"ID","Coeur d&#x27;Alene","Trader Joe's Coeur d'Alene (362)","https://locations.traderjoes.com/id/coeur-d-alene/362","303 E Spokane Ave","83814","US","+1 208-214-8293","47.687900","-116.781390"
400,"TX","Dallas","Trader Joe's Dallas Knox (400)","https://locations.traderjoes.com/tx/dallas/400","4525 Cole Ave","75205","US","+1 214-599-2155","32.822170","-96.789670"
401,"TX","Dallas","Trader Joe's Dallas North (401)","https://locations.traderjoes.com/tx/dallas/401","7939 Walnut Hill Lane","75230","US","+1 214-346-6579","32.880280","-96.772020"
402,"TX","Plano","Trader Joe's Plano (402)","https://locations.traderjoes.com/tx/plano/402","2400 Preston Rd","75093","US","+1 972-312-9538","33.029460","-96.792790"
403,"TX","Dallas","Trader Joe's Dallas  -  Lower Greenville (403)","https://locations.traderjoes.com/tx/dallas/403","2001 Greenville Ave","75206","US","+1 469-334-0614","32.814900","-96.770560"
404,"TX","Fort Worth","Trader Joe's Fort Worth (404)","https://locations.traderjoes.com/tx/fort-worth/404","2701 S Hulen St","76109","US","+1 817-922-9107","32.712070","-97.385180"
405,"TX","Dallas","Trader Joe's Dallas West (405)","https://locations.traderjoes.com/tx/dallas/405","5550 W Lovers Lane","75209","US","+1 214-366-0205","32.851040","-96.818420"
406,"TX","Southlake","Trader Joe's Southlake (406)","https://locations.traderjoes.com/tx/southlake/406","1492 E Southlake Blvd","76092","US","+1 817-251-0360","32.941360","-97.129410"
407,"TX","Dallas","Trader Joe's Dallas Far North (407)","https://locations.traderjoes.com/tx/dallas/407","14856 Preston Rd","75254","US","+1 972-239-3901","32.952630","-96.803560"
408,"TX","McKinney","Trader Joe's McKinney (408)","https://locations.traderjoes.com/tx/mckinney/408","2851 Craig Dr","75070","US","+1 214-491-1893","33.174010","-96.642980"
426,"TX","Houston","Trader Joe's Houston - Alabama Theater (426)","https://locations.traderjoes.com/tx/houston/426","2922 S Shepherd Drive","77098","US","+1 713-526-4034","29.739210","-95.411140"
427,"TX","Houston","Trader Joe's Houston - S Voss Rd (427)","https://locations.traderjoes.com/tx/houston/427","1440 South Voss Road","77057","US","+1 713-266-2377","29.752640","-95.501570"
428,"TX","The Woodlands","Trader Joe's The Woodlands (428)","https://locations.traderjoes.com/tx/the-woodlands/428","10868 Kuykendahl Road","77381","US","+1 281-465-0254","30.176160","-95.537110"
429,"TX","Katy","Trader Joe's Katy (Cinco Ranch) (429)","https://locations.traderjoes.com/tx/katy/429","2717 Commercial Center Blvd","77494","US","+1 281-392-4200","29.740300","-95.774990"
430,"TX","Sugar Land","Trader Joe's Sugar Land (430)","https://locations.traderjoes.com/tx/sugar-land/430","13550 University Blvd","77479","US","+1 281-805-3021","29.584000","-95.650090"
431,"TX","Houston","Trader Joe's Houston - West (431)","https://locations.traderjoes.com/tx/houston/431","11683 Westheimer Rd","77077","US","+1 281-496-2488","29.735370","-95.582440"
451,"TX","San Antonio","Trader Joe's San Antonio (451)","https://locations.traderjoes.com/tx/san-antonio/451","350 East Basse Road","78209","US","+1 210-826-1110","29.496630","-98.478070"
452,"TX","Austin","Trader Joe's Austin - Seaholm (452)","https://locations.traderjoes.com/tx/austin/452","211 Walter Seaholm Dr","78701","US","+1 512-474-2263","30.267620","-97.752740"
453,"TX","Austin","Trader Joe's Austin - Rollingwood (453)","https://locations.traderjoes.com/tx/austin/453","2805 Bee Cave Rd","78746","US","+1 512-306-1032","30.270370","-97.789580"
454,"TX","Austin","Trader Joe's Austin - Northwest (454)","https://locations.traderjoes.com/tx/austin/454","9722 Great Hills Trail","78759","US","+1 512-241-1248","30.394920","-97.752530"
455,"TX","San Antonio","Trader Joe's San Antonio - Sonterra Village (455)","https://locations.traderjoes.com/tx/san-antonio/455","403 N Loop 1604 W","78232","US","+1 210-939-5789","29.609300","-98.499040"
456,"TX","Coppell","Trader Joe's Coppell (456)","https://locations.traderjoes.com/tx/coppell/456","120 S Denton Tap Rd.","75019","US","+1 945-202-7413","32.968990","-96.993160"
460,"OK","Tulsa","Trader Joe's Tulsa (460)","https://locations.traderjoes.com/ok/tulsa/460","3702 S Peoria Ave","74105","US","+1 918-712-9768","36.109570","-95.975950"
461,"OK","Nichols Hills","Trader Joe's Oklahoma City - Nichols Hills (461)","https://locations.traderjoes.com/ok/nichols-hills/461","6409 Avondale Dr","73116","US","+1 405-843-5655","35.537850","-97.532040"
500,"MA","Boston","Trader Joe's Boston (Boylston St) (500)","https://locations.traderjoes.com/ma/boston/500","500 Boylston St","02116","US","+1 617-693-6302","42.350550","-71.073900"
501,"MA","Brookline","Trader Joe's Brookline (501)","https://locations.traderjoes.com/ma/brookline/501","1317 Beacon St","02446","US","+1 617-278-9997","42.341680","-71.120780"
502,"MA","Cambridge","Trader Joe's Cambridge (502)","https://locations.traderjoes.com/ma/cambridge/502","748 Memorial Dr","02139","US","+1 617-491-8582","42.358270","-71.114220"
503,"MA","Framingham","Trader Joe's Framingham (503)","https://locations.traderjoes.com/ma/framingham/503","659 Worcester Rd","01701","US","+1 508-935-2931","42.299050","-71.424670"
504,"MA","Needham","Trader Joe's Needham Heights (504)","https://locations.traderjoes.com/ma/needham/504","958 Highland Ave","02494","US","+1 781-449-6993","42.292390","-71.235110"
505,"MA","Arlington","Trader Joe's Arlington (505)","https://locations.traderjoes.com/ma/arlington/505","1427 Massachusetts Ave","02476","US","+1 781-646-9138","42.425290","-71.188480"
506,"MA","Saugus","Trader Joe's Saugus (506)","https://locations.traderjoes.com/ma/saugus/506","358 Broadway","01906","US","+1 781-231-0848","42.483510","-71.017330"
507,"NH","Nashua","Trader Joe's Nashua (507)","https://locations.traderjoes.com/nh/nashua/507","262 Daniel Webster HWY","03060","US","+1 603-888-5460","42.707750","-71.440860"
508,"MA","Shrewsbury","Trader Joe's Shrewsbury (508)","https://locations.traderjoes.com/ma/shrewsbury/508","77 Boston Turnpike","01545","US","+1 508-755-9560","42.275400","-71.751280"
509,"MA","West Newton","Trader Joe's West Newton (509)","https://locations.traderjoes.com/ma/west-newton/509","1121 Washington St","02465","US","+1 617-244-1620","42.349890","-71.219440"
510,"MA","Boston","Trader Joe's Boston - Back Bay (510)","https://locations.traderjoes.com/ma/boston/510","899 Boylston St","02115","US","+1 617-262-6505","42.348510","-71.084120"
511,"MA","Acton","Trader Joe's Acton (511)","https://locations.traderjoes.com/ma/acton/511","145 Great Rd","01720","US","+1 978-266-8908","42.482430","-71.414520"
512,"MA","Hadley","Trader Joe's Hadley (512)","https://locations.traderjoes.com/ma/hadley/512","375 Russell St","01035","US","+1 413-587-3260","42.357790","-72.549420"
513,"MA","Hanover","Trader Joe's Hanover (513)","https://locations.traderjoes.com/ma/hanover/513","1775 Washington St","02339","US","+1 339-298-1530","42.143600","-70.843120"
514,"MA","Hyannis","Trader Joe's Hyannis (514)","https://locations.traderjoes.com/ma/hyannis/514","655 Iyannough Road Rt 132","02601","US","+1 508-790-3008","41.666660","-70.292250"
515,"MA","Burlington","Trader Joe's Burlington (515)","https://locations.traderjoes.com/ma/burlington/515","51 Middlesex Turnpike","01803","US","+1 781-273-2310","42.473520","-71.211210"
516,"MA","Peabody","Trader Joe's Peabody (516)","https://locations.traderjoes.com/ma/peabody/516","300 Andover St","01960","US","+1 978-977-5316","42.549980","-70.955080"
517,"MA","Cambridge","Trader Joe's Cambridge Fresh Pond (517)","https://locations.traderjoes.com/ma/cambridge/517","211 Alewife Brook Pkwy","02138","US","+1 617-498-3201","42.389910","-71.143450"
518,"RI","Warwick","Trader Joe's Warwick (518)","https://locations.traderjoes.com/ri/warwick/518","1000 Bald Hill Rd","02886","US","+1 401-821-5368","41.712510","-71.486990"
519,"ME","Portland","Trader Joe's Portland (519)","https://locations.traderjoes.com/me/portland/519","87 Marginal Way","04101","US","+1 207-699-3799","43.661820","-70.264590"
520,"NH","Portsmouth","Trader Joe's Newington/Portsmouth (520)","https://locations.traderjoes.com/nh/portsmouth/520","45 Gosling Rd","03801","US","+1 603-431-2654","43.091990","-70.799790"
521,"CT","Westport","Trader Joe's Westport (521)","https://locations.traderjoes.com/ct/westport/521","400 Post Road E","06880","US","+1 203-226-8966","41.139240","-73.350930"
522,"CT","Darien","Trader Joe's Darien (522)","https://locations.traderjoes.com/ct/darien/522","436 Boston Post Rd","06820","US","+1 203-656-1414","41.084490","-73.462500"
523,"CT","Fairfield","Trader Joe's Fairfield (523)","https://locations.traderjoes.com/ct/fairfield/523","2258 Black Rock Turnpike","06825","US","+1 203-330-8301","41.182540","-73.253750"
524,"CT","Orange","Trader Joe's Orange (524)","https://locations.traderjoes.com/ct/orange/524","560 Boston Post Rd","06477","US","+1 203-795-5505","41.251580","-73.020080"
525,"CT","Danbury","Trader Joe's Danbury (525)","https://locations.traderjoes.com/ct/danbury/525","113 Mill Plain Rd","06811","US","+1 203-739-0098","41.392340","-73.522520"
526,"CT","West Hartford","Trader Joe's West Hartford (526)","https://locations.traderjoes.com/ct/west-hartford/526","1489 New Britain Ave","06110","US","+1 860-561-4771","41.723470","-72.758260"
527,"VT","South Burlington","Trader Joe's South Burlington (527)","https://locations.traderjoes.com/vt/south-burlington/527","200 Dorset St","05403","US","+1 802-658-4500","44.463760","-73.180400"
528,"MA","Foxborough","Trader Joe's Foxborough - Patriot Place (528)","https://locations.traderjoes.com/ma/foxborough/528","350 Patriot Place","02035","US","+1 508-543-1978","42.086290","-71.270230"
529,"CT","Stamford","Trader Joe's Stamford (529)","https://locations.traderjoes.com/ct/stamford/529","1041 High Ridge Rd","06905","US","+1 203-321-8440","41.106670","-73.547850"
530,"MA","Hingham","Trader Joe's Hingham (530)","https://locations.traderjoes.com/ma/hingham/530","5 Essington Drive","02043","US","+1 781-740-2038","42.249190","-70.925240"
531,"NY","Scarsdale","Trader Joe's Scarsdale (531)","https://locations.traderjoes.com/ny/scarsdale/531","727 White Plains Rd","10583","US","+1 914-472-2988","40.972210","-73.804900"
532,"NY","Larchmont","Trader Joe's Larchmont (532)","https://locations.traderjoes.com/ny/larchmont/532","1260 Boston Post Rd","10538","US","+1 914-833-9112","40.938440","-73.745950"
533,"NY","Hartsdale","Trader Joe's Hartsdale (533)","https://locations.traderjoes.com/ny/hartsdale/533","215 N Central Ave","10530","US","+1 914-997-1960","41.025490","-73.793440"
534,"NY","Rochester","Trader Joe's Rochester (534)","https://locations.traderjoes.com/ny/rochester/534","3349 Monroe Ave","14618","US","+1 585-248-5011","43.103970","-77.541940"
535,"NY","Colonie","Trader Joe's Colonie/Albany (535)","https://locations.traderjoes.com/ny/colonie/535","79 Wolf Rd","12205","US","+1 518-482-4538","42.714190","-73.812470"
536,"NY","Buffalo","Trader Joe's Amherst (536)","https://locations.traderjoes.com/ny/buffalo/536","1565 Niagara Falls Blvd","14228","US","+1 716-833-4687","42.997720","-78.821680"
537,"NY","Syracuse","Trader Joe's Syracuse (537)","https://locations.traderjoes.com/ny/syracuse/537","3422 Erie Blvd E","13214","US","+1 315-446-1629","43.046250","-76.070400"
538,"NY","New York","Trader Joe's Essex Crossing (538)","https://locations.traderjoes.com/ny/new-york/538","400 Grand St. (Cellar)","10002","US","+1 212-477-8340","40.716190","-73.987010"
539,"NY","New York","Trader Joe's SoHo (539)","https://locations.traderjoes.com/ny/new-york/539","233 Spring Street","10013","US","+1 212-691-2721","40.725690","-74.004870"
540,"NY","New York","Trader Joe's Union Square (540)","https://locations.traderjoes.com/ny/new-york/540","142 E 14th St","10003","US","+1 212-529-4612","40.733460","-73.987970"
542,"NY","New York","Trader Joe's 72nd & Broadway (542)","https://locations.traderjoes.com/ny/new-york/542","2073 Broadway","10023","US","+1 212-799-0028","40.778540","-73.982270"
543,"NY","New York","Trader Joe's Chelsea (543)","https://locations.traderjoes.com/ny/new-york/543","675 6th Ave","10010","US","+1 212-255-2106","40.742100","-73.994000"
544,"NY","New York","Trader Joe's New York - Murray Hill (544)","https://locations.traderjoes.com/ny/new-york/544","200 E 32nd St","10016","US","+1 212-889-3279","40.744050","-73.978900"
545,"NY","New York","Trader Joe's Upper West Side (545)","https://locations.traderjoes.com/ny/new-york/545","670 Columbus Ave","10025","US","+1 212-678-1680","40.790690","-73.969340"
546,"NY","New York","Trader Joe's East Village (546)","https://locations.traderjoes.com/ny/new-york/546","436 East 14th St","10009","US","+1 212-777-9412","40.730490","-73.980960"
547,"NY","Brooklyn","Trader Joe's Brooklyn - City Point (547)","https://locations.traderjoes.com/ny/brooklyn/547","445 Gold St","11201","US","+1 718-243-0107","40.690260","-73.983200"
548,"NY","Brooklyn","Trader Joe's Brooklyn - Williamsburg (548)","https://locations.traderjoes.com/ny/brooklyn/548","200 Kent Ave","11249","US","+1 718-218-7315","40.717900","-73.964500"
550,"NY","Garden City","Trader Joe's Westbury (550)","https://locations.traderjoes.com/ny/garden-city/550","910 Old Country Rd","11530","US","+1 516-794-0174","40.744490","-73.604060"
551,"NY","Commack","Trader Joe's Commack (551)","https://locations.traderjoes.com/ny/commack/551","5900 Jericho Turnpike","11725","US","+1 631-499-0898","40.840350","-73.307500"
552,"NY","Oceanside","Trader Joe's Oceanside (552)","https://locations.traderjoes.com/ny/oceanside/552","3418 Long Beach Rd","11572","US","+1 516-536-9163","40.626910","-73.641160"
553,"NY","Merrick","Trader Joe's Merrick (553)","https://locations.traderjoes.com/ny/merrick/553","1714 Merrick Rd","11566","US","+1 516-771-1012","40.653560","-73.558770"
554,"NY","Hewlett","Trader Joe's Hewlett (554)","https://locations.traderjoes.com/ny/hewlett/554","1280 West Broadway","11557","US","+1 516-569-7191","40.639060","-73.701680"
555,"NY","Plainview","Trader Joe's Plainview (555)","https://locations.traderjoes.com/ny/plainview/555","425 S Oyster Bay Rd","11803","US","+1 516-933-6900","40.781630","-73.501600"
556,"NY","Lake Grove","Trader Joe's Lake Grove (556)","https://locations.traderjoes.com/ny/lake-grove/556","2085 Smith Haven Plaza","11755","US","+1 631-366-2094","40.868650","-73.128180"
557,"NY","Queens","Trader Joe's Rego Park (557)","https://locations.traderjoes.com/ny/queens/557","9030 Metropolitan Ave","11374","US","+1 718-275-1791","40.711520","-73.858580"
558,"NY","Brooklyn","Trader Joe's Brooklyn (558)","https://locations.traderjoes.com/ny/brooklyn/558","130 Court St","11201","US","+1 718-246-8460","40.689510","-73.992620"
559,"NY","Staten Island","Trader Joe's Staten Island (559)","https://locations.traderjoes.com/ny/staten-island/559","2385 Richmond Ave","10314","US","+1 718-370-1085","40.589850","-74.165990"
560,"MA","Somerville","Trader Joe's Somerville (560)","https://locations.traderjoes.com/ma/somerville/560","145 Middlesex Ave","02145","US","+1 617-591-0124","42.395120","-71.082500"
561,"MA","Allston","Trader Joe's Allston (561)","https://locations.traderjoes.com/ma/allston/561","199 N Harvard St","02134","US","+1 617-787-1238","42.363490","-71.129700"
562,"NH","Bedford","Trader Joe's Bedford (562)","https://locations.traderjoes.com/nh/bedford/562","2 Market Street","03110","US","+1 603-222-3074","42.953470","-71.477410"
563,"CT","Manchester","Trader Joe's Manchester (563)","https://locations.traderjoes.com/ct/manchester/563","1510 Pleasant Valley Road","06042","US","+1 860-644-3182","41.806640","-72.557560"
565,"NY","Queens","Trader Joe's Long Island City (565)","https://locations.traderjoes.com/ny/queens/565","22-43 Jackson Ave","11101","US","+1 718-472-2672","40.745880","-73.946220"
566,"MA","Boston","Trader Joe's Fort Point Seaport (566)","https://locations.traderjoes.com/ma/boston/566","44 Thomson Place","02210","US","+1 617-941-3714","42.351770","-71.047360"
567,"NY","Yorktown","Trader Joe's Yorktown (567)","https://locations.traderjoes.com/ny/yorktown/567","3240 Crompond Road","10598","US","+1 914-737-1460","41.291340","-73.824410"
568,"NY","Ithaca","Trader Joe's Ithaca (568)","https://locations.traderjoes.com/ny/ithaca/568","744 S Meadow Street","14850","US","+1 607-272-1420","42.429540","-76.508020"
569,"PA","Camp Hill","Trader Joe's Camp Hill (569)","https://locations.traderjoes.com/pa/camp-hill/569","3545 Gettysburg Road","17011","US","+1 717-730-6025","40.223780","-76.935800"
571,"NY","New York","Trader Joe's Upper East Side - Bridgemarket (571)","https://locations.traderjoes.com/ny/new-york/571","405 E. 59th Street","10022","US","+1 212-935-3870","40.759450","-73.960610"
572,"RI","Providence","Trader Joe's Providence (572)","https://locations.traderjoes.com/ri/providence/572","425 S Main St","02903","US","+1 401-459-4090","41.820380","-71.403510"
574,"NY","Halfmoon","Trader Joe's Halfmoon (574)","https://locations.traderjoes.com/ny/halfmoon/574","3 Halfmoon Crossing Blvd","12065","US","+1 518-383-5015","42.858400","-73.766800"
576,"NY","New York","Trader Joe's Harlem (576)","https://locations.traderjoes.com/ny/new-york/576","123 W 125th St","10027","US","+1 646-337-1986","40.808380","-73.946550"
578,"NY","Queens","Trader Joe's Forest Hills (578)","https://locations.traderjoes.com/ny/queens/578","69-65 Yellowstone Blvd","11375","US","+1 718-544-8589","40.722580","-73.848570"
580,"NY","Staten Island","Trader Joe's Staten Island - Tottenville (580)","https://locations.traderjoes.com/ny/staten-island/580","6400 Amboy Rd","10309","US","","40.522060","-74.215450"
582,"MA","Milford","Trader Joe's Milford (582)","https://locations.traderjoes.com/ma/milford/582","230 Fortune Blvd","01757","US","+1 508-318-9234","42.160740","-71.501870"
584,"PA","Berwyn","Trader Joe's Berwyn (584)","https://locations.traderjoes.com/pa/berwyn/584","550 Lancaster Ave","19312","US","","40.047380","-75.437510"
585,"PA","King of Prussia","Trader Joe's King of Prussia (585)","https://locations.traderjoes.com/pa/king-of-prussia/585","224 W Dekalb Pike","19406","US","+1 484-261-7509","40.094350","-75.367600"
586,"CT","Glastonbury","Trader Joe's Glastonbury (586)","https://locations.traderjoes.com/ct/glastonbury/586","400 Hebron Ave","06033","US","+1 860-633-9270","41.713370","-72.599800"
589,"MD","Rockville","Trader Joe's Rockville - Town Square (589)","https://locations.traderjoes.com/md/rockville/589","225 N Washington St","20850","US","","39.086530","-77.152730"
590,"NJ","Freehold","Trader Joe's Freehold (590)","https://locations.traderjoes.com/nj/freehold/590","4331 Route 9","07728","US","+1 732-462-1539","40.280790","-74.293300"
591,"NJ","Middletown Township","Trader Joe's Middletown (591)","https://locations.traderjoes.com/nj/middletown-township/591","1447 NJ-35","07748","US","+1 732-808-3237","40.439180","-74.119670"
600,"IN","South Bend","Trader Joe's South Bend (600)","https://locations.traderjoes.com/in/south-bend/600","1140 East Howard","46617","US","+1 574-472-8744","41.687790","-86.234760"
601,"NJ","Westfield","Trader Joe's Westfield (601)","https://locations.traderjoes.com/nj/westfield/601","155 Elm St","07090","US","+1 908-301-0910","40.651950","-74.350190"
602,"NJ","Westwood","Trader Joe's Westwood (602)","https://locations.traderjoes.com/nj/westwood/602","20 Irvington St","07675","US","+1 201-263-0134","40.993030","-74.035920"
603,"NJ","Wayne","Trader Joe's Wayne (603)","https://locations.traderjoes.com/nj/wayne/603","910 Hamburg Turnpike","07470","US","+1 973-872-4604","40.958960","-74.229910"
604,"NJ","Florham Park","Trader Joe's Florham Park (604)","https://locations.traderjoes.com/nj/florham-park/604","176 Columbia Turnpike","07932","US","+1 973-377-0679","40.788800","-74.392310"
605,"NJ","Paramus","Trader Joe's Paramus (605)","https://locations.traderjoes.com/nj/paramus/605","404 Rt 17 N","07652","US","+1 201-265-9624","40.948360","-74.070640"
606,"NJ","Edgewater","Trader Joe's Edgewater (606)","https://locations.traderjoes.com/nj/edgewater/606","715 River Rd","07020","US","+1 201-945-5932","40.819620","-73.977500"
607,"NJ","Princeton","Trader Joe's Princeton (607)","https://locations.traderjoes.com/nj/princeton/607","3528 Brunswick Pike","08540","US","+1 609-897-0581","40.310670","-74.661160"
608,"NJ","Shrewsbury","Trader Joe's Shrewsbury (608)","https://locations.traderjoes.com/nj/shrewsbury/608","1031 Broad St","07702","US","+1 732-389-2535","40.316350","-74.060990"
609,"NJ","Millburn","Trader Joe's Millburn (609)","https://locations.traderjoes.com/nj/millburn/609","187 Millburn Ave","07041","US","+1 973-218-0912","40.723000","-74.296150"
610,"NJ","Clifton","Trader Joe's Clifton (610)","https://locations.traderjoes.com/nj/clifton/610","259 Allwood Road","07012","US","+1 973-777-5020","40.837380","-74.151970"
611,"NJ","Hoboken","Trader Joe's Hoboken (611)","https://locations.traderjoes.com/nj/hoboken/611","1350 Willow Ave.","07030","US","+1 201-714-4790","40.753730","-74.030100"
612,"NJ","North Brunswick","Trader Joe's North Brunswick (612)","https://locations.traderjoes.com/nj/north-brunswick/612","869 US-1","08902","US","+1 732-993-1403","40.462680","-74.459440"
613,"NJ","Cherry Hill","Trader Joe's Cherry Hill (613)","https://locations.traderjoes.com/nj/cherry-hill/613","775 Haddonfield Rd","08002","US","+1 856-488-0801","39.929750","-75.032100"
614,"NJ","Bridgewater","Trader Joe's Bridgewater (614)","https://locations.traderjoes.com/nj/bridgewater/614","315 Promenade Blvd","08807","US","+1 732-805-0268","40.563510","-74.557890"
615,"NJ","Brick","Trader Joe's Brick (615)","https://locations.traderjoes.com/nj/brick/615","110 Brick Plaza","08723","US","+1 732-477-4781","40.059150","-74.140340"
617,"NJ","Denville","Trader Joe's Denville (617)","https://locations.traderjoes.com/nj/denville/617","3056 State Route 10 West","07834","US","+1 973-537-3672","40.867020","-74.507730"
618,"PA","Philadelphia","Trader Joe's Arch St. (618)","https://locations.traderjoes.com/pa/philadelphia/618","1324 Arch St.","19107","US","+1 215-563-2170","39.954030","-75.162450"
619,"VA","Ashburn","Trader Joe's Ashburn (619)","https://locations.traderjoes.com/va/ashburn/619","44755 Brimfield Dr","20147","US","+1 703-858-5993","39.050310","-77.452810"
620,"DC","Washington","Trader Joe's Glover Park (620)","https://locations.traderjoes.com/dc/washington/620","2101 Wisconsin Ave NW","20007","US","+1 202-944-8403","38.917470","-77.068400"
621,"DC","Washington","Trader Joe's Washington - Union Market District (621)","https://locations.traderjoes.com/dc/washington/621","350 Florida Ave. NE","20002","US","+1 202-608-1023","38.907770","-77.001060"
622,"DC","Washington","Trader Joe's Washington - Capitol Hill (622)","https://locations.traderjoes.com/dc/washington/622","750 Pennsylvania Ave SE","20003","US","+1 202-698-0190","38.884740","-76.995530"
623,"MD","Bethesda","Trader Joe's Bethesda - Downtown (623)","https://locations.traderjoes.com/md/bethesda/623","7900 Wisconsin Ave","20814","US","+1 301-215-7913","38.989620","-77.095550"
624,"PA","Pittsburgh","Trader Joe's Pittsburgh North Hills (624)","https://locations.traderjoes.com/pa/pittsburgh/624","9020 Covenant Ave","15237","US","+1 412-366-1131","40.570340","-80.022240"
625,"KY","Louisville","Trader Joe's Louisville Wine Shop (625)","https://locations.traderjoes.com/ky/louisville/625","4600 Shelbyville Rd Ste 112","40207","US","+1 502-895-7872","38.250240","-85.629130"
626,"KY","Lexington","Trader Joe's Lexington Wine Shop (626)","https://locations.traderjoes.com/ky/lexington/626","2320 Nicholasville Road","40503","US","+1 859-277-0144","38.004740","-84.518200"
627,"KY","Lexington","Trader Joe's Lexington Grocery (627)","https://locations.traderjoes.com/ky/lexington/627","2326 Nicholasville Rd","40503","US","+1 859-313-5030","38.004850","-84.518190"
628,"KY","Louisville","Trader Joe's Louisville Grocery (628)","https://locations.traderjoes.com/ky/louisville/628","4600 Shelbyville Rd","40207","US","+1 502-895-1361","38.250240","-85.629130"
629,"PA","State College","Trader Joe's State College (629)","https://locations.traderjoes.com/pa/state-college/629","243 Patriot Lane","16803","US","+1 814-234-2224","40.810350","-77.902370"
630,"PA","Pittsburgh","Trader Joe's Pittsburgh - South Hills (630)","https://locations.traderjoes.com/pa/pittsburgh/630","1630 Washington Rd","15241","US","+1 412-835-2212","40.351530","-80.051720"
631,"NJ","Marlton","Trader Joe's Marlton (631)","https://locations.traderjoes.com/nj/marlton/631","300 P Route 73 S","08053","US","+1 856-988-3323","39.891100","-74.924970"
632,"PA","Wayne","Trader Joe's Wayne (632)","https://locations.traderjoes.com/pa/wayne/632","171 E Swedesford Rd","19087","US","+1 610-225-0925","40.073300","-75.433550"
633,"PA","Jenkintown","Trader Joe's Jenkintown (633)","https://locations.traderjoes.com/pa/jenkintown/633","933 Old York Rd","19046","US","+1 215-885-5240","40.108280","-75.123020"
634,"PA","Philadelphia","Trader Joe's Philadelphia - Center City (634)","https://locations.traderjoes.com/pa/philadelphia/634","2121 Market St","19103","US","+1 215-569-9282","39.954050","-75.176230"
635,"PA","Ardmore","Trader Joe's Ardmore (635)","https://locations.traderjoes.com/pa/ardmore/635","112 Coulter Ave","19003","US","+1 610-658-0645","40.007280","-75.286510"
636,"DE","Wilmington","Trader Joe's Wilmington (636)","https://locations.traderjoes.com/de/wilmington/636","5605 Concord Pike","19803","US","+1 302-478-8494","39.833930","-75.541900"
637,"PA","Media","Trader Joe's Media (637)","https://locations.traderjoes.com/pa/media/637","12 E State St","19063","US","+1 610-891-2752","39.917570","-75.388850"
638,"PA","Pittsburgh","Trader Joe's Pittsburgh (638)","https://locations.traderjoes.com/pa/pittsburgh/638","6343 Penn Ave","15206","US","+1 412-363-5748","40.458810","-79.919220"
639,"PA","North Wales","Trader Joe's North Wales (639)","https://locations.traderjoes.com/pa/north-wales/639","1460 Bethlehem Pike","19454","US","+1 215-646-5870","40.209760","-75.222930"
640,"VA","Arlington","Trader Joe's Arlington - Clarendon (640)","https://locations.traderjoes.com/va/arlington/640","1109 N Highland St","22201","US","+1 703-351-8015","38.886660","-77.094730"
641,"VA","Falls Church","Trader Joe's Falls Church - Tyson's Station (641)","https://locations.traderjoes.com/va/falls-church/641","7514 Leesburg Turnpike","22043","US","+1 703-288-0566","38.904340","-77.203830"
642,"MD","Rockville","Trader Joe's Rockville (642)","https://locations.traderjoes.com/md/rockville/642","12268-H Rockville Pike","20852","US","+1 301-468-6656","39.057210","-77.122560"
643,"VA","Fairfax","Trader Joe's Fairfax (643)","https://locations.traderjoes.com/va/fairfax/643","9464 Main St","22031","US","+1 703-764-8550","38.842600","-77.270350"
644,"VA","Bailey&#x27;s Crossroads","Trader Joe's Bailey's Crossroads (644)","https://locations.traderjoes.com/va/bailey-s-crossroads/644","5847 Leesburg Pike","22041","US","+1 703-379-5883","38.850940","-77.132570"
645,"MD","Bethesda","Trader Joe's Bethesda (645)","https://locations.traderjoes.com/md/bethesda/645","6831 Wisconsin Ave","20815","US","+1 301-907-0982","38.978350","-77.090630"
646,"VA","Reston","Trader Joe's Reston (646)","https://locations.traderjoes.com/va/reston/646","11958 Killingsworth Ave","20194","US","+1 703-689-0865","38.967210","-77.359070"
647,"VA","Alexandria","Trader Joe's Alexandria (647)","https://locations.traderjoes.com/va/alexandria/647","612 N Saint Asaph St","22314","US","+1 703-548-0611","38.811120","-77.044960"
648,"MD","Rockville","Trader Joe's North Potomac (648)","https://locations.traderjoes.com/md/rockville/648","10076 Darnestown Rd","20850","US","+1 301-762-0782","39.096540","-77.206820"
649,"MD","Towson","Trader Joe's Towson (649)","https://locations.traderjoes.com/md/towson/649","800 Kenilworth Drive","21204","US","+1 410-321-0276","39.411540","-76.618300"
650,"MD","Annapolis","Trader Joe's Annapolis (650)","https://locations.traderjoes.com/md/annapolis/650","160 F Jennifer Rd","21401","US","+1 410-573-0505","38.989050","-76.540180"
651,"VA","Springfield","Trader Joe's Springfield (651)","https://locations.traderjoes.com/va/springfield/651","6394 Springfield Plaza","22150","US","+1 703-569-9301","38.781740","-77.189640"
652,"MD","Silver Spring","Trader Joe's Silver Spring (652)","https://locations.traderjoes.com/md/silver-spring/652","10741 Columbia Pike","20901","US","+1 301-681-1675","39.031450","-77.003580"
653,"DC","Washington","Trader Joe's Washington - 25th St (653)","https://locations.traderjoes.com/dc/washington/653","1101 25th Street NW","20037","US","+1 202-296-1921","38.904200","-77.053010"
654,"VA","Centreville","Trader Joe's Centreville (654)","https://locations.traderjoes.com/va/centreville/654","14100 Lee Hwy","20120","US","+1 703-815-0697","38.839490","-77.424690"
655,"MD","Pikesville","Trader Joe's Pikesville (655)","https://locations.traderjoes.com/md/pikesville/655","1809 Reisterstown Rd","21208","US","+1 410-484-8373","39.387360","-76.736400"
656,"VA","Newport News","Trader Joe's Newport News (656)","https://locations.traderjoes.com/va/newport-news/656","12551 Jefferson Ave","23602","US","+1 757-890-0235","37.129280","-76.516590"
657,"VA","Williamsburg","Trader Joe's Williamsburg (657)","https://locations.traderjoes.com/va/williamsburg/657","5000 Settlers Market Blvd","23188","US","+1 757-259-2135","37.277110","-76.747750"
658,"MD","Elkridge","Trader Joe's Columbia (658)","https://locations.traderjoes.com/md/elkridge/658","6610 Marie Curie Dr","21075","US","+1 410-953-8139","39.188260","-76.795590"
659,"VA","Glen Allen","Trader Joe's Richmond/Short Pump (659)","https://locations.traderjoes.com/va/glen-allen/659","11331 W Broad St","23060","US","+1 804-360-4098","37.648810","-77.606090"
660,"VA","Virginia Beach","Trader Joe's Virginia Beach (660)","https://locations.traderjoes.com/va/virginia-beach/660","503 Hilltop Plaza","23454","US","+1 757-422-4840","36.848650","-76.024970"
661,"VA","Charlottesville","Trader Joe's Charlottesville (661)","https://locations.traderjoes.com/va/charlottesville/661","2025 Bond St.","22901","US","+1 434-974-1466","38.062990","-78.491500"
662,"DC","Washington","Trader Joe's Washington - 14th St (662)","https://locations.traderjoes.com/dc/washington/662","1914 14th St NW","20009","US","+1 202-986-1591","38.916100","-77.032250"
663,"TN","Knoxville","Trader Joe's Knoxville (663)","https://locations.traderjoes.com/tn/knoxville/663","8001 Kingston Pike","37919","US","+1 865-670-4088","35.925520","-84.046030"
664,"TN","Nashville","Trader Joe's Nashville (664)","https://locations.traderjoes.com/tn/nashville/664","3909 Hillsboro Pike","37215","US","+1 615-297-6560","36.105120","-86.815600"
665,"MI","Grosse Pointe","Trader Joe's Grosse Pointe (665)","https://locations.traderjoes.com/mi/grosse-pointe/665","17028 Kercheval Ave","48230","US","+1 313-640-7794","42.389740","-82.915930"
667,"MI","Northville","Trader Joe's Northville (667)","https://locations.traderjoes.com/mi/northville/667","18771 Traditions Drive","48167","US","+1 248-349-4909","42.422750","-83.433680"
668,"MI","Rochester Hills","Trader Joe's Rochester Hills (668)","https://locations.traderjoes.com/mi/rochester-hills/668","3044 Walton Blvd","48309","US","+1 248-375-2190","42.682770","-83.195100"
669,"OH","Cincinnati","Trader Joe's Kenwood (669)","https://locations.traderjoes.com/oh/cincinnati/669","7788 Montgomery Rd","45236","US","+1 513-984-3452","39.198340","-84.381200"
670,"IN","Indianapolis","Trader Joe's Indianapolis - W 86th (670)","https://locations.traderjoes.com/in/indianapolis/670","2902 W 86th St","46268","US","+1 317-337-1880","39.912440","-86.212880"
671,"IN","Indianapolis","Trader Joe's Indianapolis - Castleton (671)","https://locations.traderjoes.com/in/indianapolis/671","5473 E 82nd St","46250","US","+1 317-595-8950","39.903830","-86.075210"
672,"OH","Dublin","Trader Joe's Dublin (672)","https://locations.traderjoes.com/oh/dublin/672","6355 Sawmill Rd","43017","US","+1 614-793-8505","40.096440","-83.092940"
673,"OH","Kettering","Trader Joe's Kettering (673)","https://locations.traderjoes.com/oh/kettering/673","328 East Stroop Rd","45429","US","+1 937-294-5411","39.688470","-84.164890"
674,"MI","Royal Oak","Trader Joe's Royal Oak (674)","https://locations.traderjoes.com/mi/royal-oak/674","27880 Woodward Ave","48067","US","+1 248-582-9002","42.495490","-83.163850"
675,"MI","Bloomfield Hills","Trader Joe's Bloomfield Hills (675)","https://locations.traderjoes.com/mi/bloomfield-hills/675","6536 Telegraph Rd","48301","US","+1 248-855-2283","42.544210","-83.286620"
676,"OH","Woodmere","Trader Joe's Woodmere (676)","https://locations.traderjoes.com/oh/woodmere/676","28425 Chagrin Blvd","44122","US","+1 216-591-9457","41.463200","-81.479130"
677,"OH","Westlake","Trader Joe's Westlake (677)","https://locations.traderjoes.com/oh/westlake/677","175 Market St","44145","US","+1 440-250-1592","41.457240","-81.951050"
678,"MI","Ann Arbor","Trader Joe's Ann Arbor (678)","https://locations.traderjoes.com/mi/ann-arbor/678","2398 East Stadium Blvd","48104","US","+1 734-975-2455","42.258510","-83.712870"
679,"OH","Columbus","Trader Joe's Columbus (679)","https://locations.traderjoes.com/oh/columbus/679","3888 Townsfair Way","43219","US","+1 614-473-0794","40.049210","-82.917880"
680,"IL","Glen Ellyn","Trader Joe's Glen Ellyn (680)","https://locations.traderjoes.com/il/glen-ellyn/680","680 Roosevelt Rd","60137","US","+1 630-858-5077","41.860350","-88.058620"
681,"IL","Glenview","Trader Joe's Glenview (681)","https://locations.traderjoes.com/il/glenview/681","1407 Waukegan Rd","60025","US","+1 847-657-7821","42.080990","-87.797270"
682,"IL","Northbrook","Trader Joe's Northbrook (682)","https://locations.traderjoes.com/il/northbrook/682","127 Skokie Blvd","60062","US","+1 847-480-9280","42.150980","-87.798810"
683,"IL","Downers Grove","Trader Joe's Downers Grove (683)","https://locations.traderjoes.com/il/downers-grove/683","122 Ogden Ave","60515","US","+1 630-241-1662","41.809830","-87.989450"
684,"IL","Lake Zurich","Trader Joe's Lake Zurich (684)","https://locations.traderjoes.com/il/lake-zurich/684","735 W Route 22","60047","US","+1 847-550-7827","42.188880","-88.108910"
685,"IL","La Grange","Trader Joe's La Grange (685)","https://locations.traderjoes.com/il/la-grange/685","25 N La Grange Rd","60525","US","+1 708-579-0838","41.817070","-87.869400"
686,"IL","Orland Park","Trader Joe's Orland Park (686)","https://locations.traderjoes.com/il/orland-park/686","14924 S La Grange Rd","60462","US","+1 708-349-9021","41.618080","-87.854690"
687,"IL","Arlington Heights","Trader Joe's Arlington Heights (687)","https://locations.traderjoes.com/il/arlington-heights/687","17 W Rand Rd","60004","US","+1 847-506-0752","42.113000","-87.982600"
688,"IL","Chicago","Trader Joe's Chicago (688)","https://locations.traderjoes.com/il/chicago/688","3745 N Lincoln Ave","60613","US","+1 773-248-4920","41.950170","-87.675360"
689,"IL","Batavia","Trader Joe's Batavia (689)","https://locations.traderjoes.com/il/batavia/689","1942 W Fabyan Pkwy","60510","US","+1 630-879-3234","41.863860","-88.338300"
690,"IL","Naperville","Trader Joe's Naperville (690)","https://locations.traderjoes.com/il/naperville/690","44 W Gartner Rd","60540","US","+1 630-355-4389","41.754590","-88.140610"
691,"IL","Chicago","Trader Joe's Chicago - Lincoln Park (691)","https://locations.traderjoes.com/il/chicago/691","1840 N Clybourn Ave","60614","US","+1 312-274-9733","41.914500","-87.655070"
692,"MO","Brentwood","Trader Joe's Brentwood (692)","https://locations.traderjoes.com/mo/brentwood/692","48 Brentwood Promenade Court","63144","US","+1 314-963-0253","38.627380","-90.341300"
693,"MO","Chesterfield","Trader Joe's Chesterfield (693)","https://locations.traderjoes.com/mo/chesterfield/693","1679 Clarkson Rd","63017","US","+1 636-536-7846","38.645040","-90.566350"
694,"MO","Creve Coeur","Trader Joe's Creve Coeur (694)","https://locations.traderjoes.com/mo/creve-coeur/694","11505 Olive Blvd","63141","US","+1 314-569-0432","38.671900","-90.436410"
695,"MO","Des Peres","Trader Joe's Des Peres (695)","https://locations.traderjoes.com/mo/des-peres/695","13343 Manchester Rd","63131","US","+1 314-984-5051","38.601050","-90.467230"
696,"IL","Chicago","Trader Joe's Chicago - River North (696)","https://locations.traderjoes.com/il/chicago/696","44 E Ontario St","60611","US","+1 312-951-6369","41.893440","-87.626290"
697,"IL","Oak Park","Trader Joe's Oak Park (697)","https://locations.traderjoes.com/il/oak-park/697","483 N Harlem Ave","60301","US","+1 708-386-1169","41.890070","-87.804920"
698,"IL","Park Ridge","Trader Joe's Park Ridge (698)","https://locations.traderjoes.com/il/park-ridge/698","190 N NW Highway","60068","US","+1 847-292-1108","42.013020","-87.832550"
699,"IL","Algonquin","Trader Joe's Algonquin (699)","https://locations.traderjoes.com/il/algonquin/699","1800 S Randall Rd","60102","US","+1 847-854-4886","42.153480","-88.339740"
701,"IL","Chicago","Trader Joe's Chicago - South Loop (701)","https://locations.traderjoes.com/il/chicago/701","1147 S Wabash Ave","60605","US","+1 312-588-0489","41.868040","-87.625370"
702,"IL","Evanston","Trader Joe's Evanston (702)","https://locations.traderjoes.com/il/evanston/702","1211 Chicago Avenue","60202","US","+1 847-733-0690","42.039990","-87.680280"
703,"IL","Chicago","Trader Joe's Chicago - Diversey Pkwy (703)","https://locations.traderjoes.com/il/chicago/703","667 W Diversey Pkwy","60614","US","+1 773-935-7255","41.932420","-87.646210"
704,"IL","Libertyville","Trader Joe's Libertyville (704)","https://locations.traderjoes.com/il/libertyville/704","1600 S Milwaukee Ave","60048","US","+1 847-680-1739","42.255090","-87.946800"
705,"IL","Schaumburg","Trader Joe's Schaumburg (705)","https://locations.traderjoes.com/il/schaumburg/705","1426 E Golf Rd","60173","US","+1 847-619-0095","42.051050","-88.042020"
706,"IL","Chicago","Trader Joe's Hyde Park (706)","https://locations.traderjoes.com/il/chicago/706","1528 E 55th Street","60615","US","+1 773-363-8831","41.795550","-87.588200"
707,"MI","Kentwood","Trader Joe's Grand Rapids - Kentwood (707)","https://locations.traderjoes.com/mi/kentwood/707","3684 28th St SE","49512","US","+1 616-977-1819","42.912400","-85.576860"
708,"MI","Kalamazoo","Trader Joe's Kalamazoo (708)","https://locations.traderjoes.com/mi/kalamazoo/708","5099 Century Ave","49006","US","+1 269-372-2049","42.270630","-85.650410"
709,"OH","Mentor","Trader Joe's Mentor (709)","https://locations.traderjoes.com/oh/mentor/709","9474 Mentor Ave","44060","US","+1 440-350-7216","41.680490","-81.300500"
710,"MN","St. Louis Park","Trader Joe's St. Louis Park (710)","https://locations.traderjoes.com/mn/st-louis-park/710","4500 Excelsior Blvd","55416","US","+1 952-285-1053","44.934600","-93.337510"
711,"WI","Milwaukee","Trader Joe's Glendale (711)","https://locations.traderjoes.com/wi/milwaukee/711","5600 N Port Washington Rd","53217","US","+1 414-962-3382","43.118980","-87.916060"
712,"WI","Madison","Trader Joe's Madison (712)","https://locations.traderjoes.com/wi/madison/712","1810 Monroe St","53711","US","+1 608-257-1916","43.065070","-89.417460"
713,"MN","Maple Grove","Trader Joe's Maple Grove (713)","https://locations.traderjoes.com/mn/maple-grove/713","12105 Elm Creek Blvd N","55369","US","+1 763-315-1739","45.092120","-93.434090"
714,"MN","Minnetonka","Trader Joe's Minnetonka (714)","https://locations.traderjoes.com/mn/minnetonka/714","11220 Wayzata Blvd","55305","US","+1 952-417-9080","44.973530","-93.422790"
715,"MN","Woodbury","Trader Joe's Woodbury (715)","https://locations.traderjoes.com/mn/woodbury/715","8960 Hudson Rd.","55125","US","+1 651-735-0269","44.945690","-92.922550"
716,"MN","St. Paul","Trader Joe's St. Paul (716)","https://locations.traderjoes.com/mn/st-paul/716","484 Lexington Pkwy S","55105","US","+1 651-698-3119","44.926690","-93.146030"
717,"MN","Eagan","Trader Joe's Eagan (717)","https://locations.traderjoes.com/mn/eagan/717","2065 Cliff Road","55122","US","+1 651-362-4841","44.790770","-93.210140"
718,"MN","Rochester","Trader Joe's Rochester (718)","https://locations.traderjoes.com/mn/rochester/718","1200 16th St SW","55902","US","+1 507-281-4411","44.000330","-92.480210"
719,"NE","Omaha","Trader Joe's Omaha (719)","https://locations.traderjoes.com/ne/omaha/719","10305 Pacific St","68114","US","+1 402-391-3698","41.248200","-96.073870"
720,"MO","Kansas City","Trader Joe's Kansas City (720)","https://locations.traderjoes.com/mo/kansas-city/720","8600 Ward Pkwy","64114","US","+1 816-333-5322","38.970560","-94.606900"
721,"IA","West Des Moines","Trader Joe's W Des Moines (721)","https://locations.traderjoes.com/ia/west-des-moines/721","6305 Mills Civic Pkwy","50266","US","+1 515-225-3820","41.561980","-93.795750"
722,"NE","Lincoln","Trader Joe's Lincoln (722)","https://locations.traderjoes.com/ne/lincoln/722","3120 Pine Lake Rd","68516","US","+1 402-328-0120","40.742530","-96.674530"
723,"KS","Leawood","Trader Joe's Leawood (723)","https://locations.traderjoes.com/ks/leawood/723","4201 W 119th St","66209","US","+1 913-327-7209","38.912550","-94.635880"
724,"MN","Bloomington","Trader Joe's Bloomington (724)","https://locations.traderjoes.com/mn/bloomington/724","4270 W 78th St","55435","US","+1 952-835-8640","44.859270","-93.332550"
725,"MN","Minneapolis","Trader Joe's Minneapolis (725)","https://locations.traderjoes.com/mn/minneapolis/725","721 Washington Ave S","55415","US","+1 612-339-2110","44.977030","-93.257750"
726,"WI","Brookfield","Trader Joe's Brookfield (726)","https://locations.traderjoes.com/wi/brookfield/726","12665 W. Bluemound Rd","53005","US","+1 262-784-4806","43.036210","-88.070220"
727,"MN","Shoreview","Trader Joe's Shoreview (727)","https://locations.traderjoes.com/mn/shoreview/727","1041 Red Fox Rd","55126","US","+1 651-765-1398","45.057950","-93.144370"
728,"IA","Coralville","Trader Joe's Coralville (728)","https://locations.traderjoes.com/ia/coralville/728","920 Ponseti Way","52241","US","+1 319-351-7223","41.683280","-91.564680"
729,"KS","Wichita","Trader Joe's Wichita (729)","https://locations.traderjoes.com/ks/wichita/729","1800 N. Rock Road","67206","US","+1 316-634-1846","37.716490","-97.243200"
730,"GA","Atlanta","Trader Joe's Atlanta (730)","https://locations.traderjoes.com/ga/atlanta/730","931 Monroe Dr","30308","US","+1 404-815-9210","33.779940","-84.368230"
731,"GA","Sandy Springs","Trader Joe's Sandy Springs (731)","https://locations.traderjoes.com/ga/sandy-springs/731","6277 Roswell Road NE","30328","US","+1 404-236-2414","33.926210","-84.378320"
732,"GA","Marietta","Trader Joe's Marietta (732)","https://locations.traderjoes.com/ga/marietta/732","4250 Roswell Road","30062","US","+1 678-560-3585","33.983160","-84.426150"
733,"GA","Roswell","Trader Joe's Roswell (733)","https://locations.traderjoes.com/ga/roswell/733","635 W Crossville Rd","30075","US","+1 770-645-8505","34.059360","-84.379740"
734,"GA","Norcross","Trader Joe's Norcross - Peachtree Corners (734)","https://locations.traderjoes.com/ga/norcross/734","5185 Peachtree Pkwy","30092","US","+1 678-966-9236","33.979160","-84.219610"
735,"GA","Atlanta","Trader Joe's Buckhead (735)","https://locations.traderjoes.com/ga/atlanta/735","3183 Peachtree Rd","30305","US","+1 404-842-0907","33.840910","-84.374970"
736,"GA","Athens","Trader Joe's Athens (736)","https://locations.traderjoes.com/ga/athens/736","1850 Epps Bridge Pkwy","30606","US","+1 706-583-8934","33.915790","-83.443260"
737,"AL","Birmingham","Trader Joe's Birmingham (737)","https://locations.traderjoes.com/al/birmingham/737","205 Summit Blvd","35243","US","+1 205-969-7801","33.446340","-86.731580"
738,"TN","Germantown","Trader Joe's Germantown (738)","https://locations.traderjoes.com/tn/germantown/738","2130 Exeter Rd.","38138","US","+1 901-759-2803","35.090800","-89.801010"
739,"TN","Nashville","Trader Joe's Belle Meade (739)","https://locations.traderjoes.com/tn/nashville/739","90 White Bridge Rd","37205","US","+1 615-356-1066","36.130670","-86.852230"
740,"NC","Asheville","Trader Joe's Asheville (740)","https://locations.traderjoes.com/nc/asheville/740","120 Merrimon Ave","28801","US","+1 828-232-5078","35.603120","-82.553600"
741,"NC","Cary","Trader Joe's Cary (741)","https://locations.traderjoes.com/nc/cary/741","1393 Kildaire Farm Rd","27511","US","+1 919-465-5984","35.759770","-78.781950"
742,"NC","Charlotte","Trader Joe's Charlotte - Piper Glen (742)","https://locations.traderjoes.com/nc/charlotte/742","6418 Rea Rd","28277","US","+1 704-543-5249","35.078350","-80.818420"
743,"NC","Charlotte","Trader Joe's Charlotte - North (743)","https://locations.traderjoes.com/nc/charlotte/743","1820 E Arbors Dr","28262","US","+1 704-688-9578","35.336890","-80.754800"
744,"NC","Charlotte","Trader Joe's Charlotte (744)","https://locations.traderjoes.com/nc/charlotte/744","1133 Metropolitan Ave","28204","US","+1 704-334-0737","35.211630","-80.835580"
745,"NC","Chapel Hill","Trader Joe's Chapel Hill (745)","https://locations.traderjoes.com/nc/chapel-hill/745","1800 E Franklin St","27514","US","+1 919-918-7871","35.935780","-79.024180"
746,"NC","Raleigh","Trader Joe's Raleigh (746)","https://locations.traderjoes.com/nc/raleigh/746","3000 Wake Forest Rd","27609","US","+1 919-981-7422","35.823270","-78.621760"
747,"NC","Wilmington","Trader Joe's Wilmington (747)","https://locations.traderjoes.com/nc/wilmington/747","1437 S College Rd","28403","US","+1 910-395-5173","34.210780","-77.885730"
748,"NC","Raleigh","Trader Joe's Raleigh - North (748)","https://locations.traderjoes.com/nc/raleigh/748","8111 Creedmoor Rd","27613","US","+1 984-252-3344","35.899410","-78.681920"
749,"NC","Winston Salem","Trader Joe's Winston Salem (749)","https://locations.traderjoes.com/nc/winston-salem/749","252 South Stratford Road","27103","US","+1 336-721-1744","36.091790","-80.281580"
750,"NC","Greensboro","Trader Joe's Greensboro (750)","https://locations.traderjoes.com/nc/greensboro/750","3721 Battleground Ave.","27410","US","+1 336-286-7859","36.131280","-79.857830"
751,"SC","Greenville","Trader Joe's Greenville (751)","https://locations.traderjoes.com/sc/greenville/751","59 Woodruff Industrial Ln","29607","US","+1 864-286-0231","34.828810","-82.306100"
752,"SC","Mt. Pleasant","Trader Joe's Mt. Pleasant (752)","https://locations.traderjoes.com/sc/mt-pleasant/752","401 Johnnie Dodds Blvd","29464","US","+1 843-884-4037","32.804890","-79.887250"
753,"SC","Columbia","Trader Joe's Columbia (753)","https://locations.traderjoes.com/sc/columbia/753","4516 Forest Drive","29206","US","+1 803-790-2404","34.020220","-80.972930"
754,"LA","Baton Rouge","Trader Joe's Baton Rouge (754)","https://locations.traderjoes.com/la/baton-rouge/754","3535 Perkins Rd","70808","US","+1 225-382-0588","30.423040","-91.154100"
755,"LA","Metairie","Trader Joe's Metairie (755)","https://locations.traderjoes.com/la/metairie/755","2949 Veterans Blvd","70002","US","+1 504-831-0253","30.004410","-90.151760"
756,"AR","Little Rock","Trader Joe's Little Rock (756)","https://locations.traderjoes.com/ar/little-rock/756","11500 Financial Centre Pky","72211","US","+1 501-954-7659","34.748210","-92.401620"
757,"IN","Fort Wayne","Trader Joe's Fort Wayne (757)","https://locations.traderjoes.com/in/fort-wayne/757","4110 W. Jefferson Blvd.","46804","US","+1 260-432-5828","41.071430","-85.195230"
758,"MD","College Park","Trader Joe's College Park (758)","https://locations.traderjoes.com/md/college-park/758","4429 Calvert Road","20740","US","+1 301-985-3704","38.978260","-76.938210"
759,"DE","Newark","Trader Joe's Christiana (759)","https://locations.traderjoes.com/de/newark/759","2500 Fashion Center Blvd.","19702","US","+1 302-292-6825","39.673160","-75.648080"
760,"FL","Jacksonville Beach","Trader Joe's Jacksonville Beach (760)","https://locations.traderjoes.com/fl/jacksonville-beach/760","4180 S 3rd St","32250","US","+1 904-241-1770","30.257190","-81.388250"
761,"FL","Sarasota","Trader Joe's Sarasota (761)","https://locations.traderjoes.com/fl/sarasota/761","4101 S Tamiami Trail","34231","US","+1 941-922-5727","27.294850","-82.529960"
762,"FL","Naples","Trader Joe's Naples (762)","https://locations.traderjoes.com/fl/naples/762","10600 Tamiami Trail N","34108","US","+1 239-596-5631","26.268020","-81.800750"
763,"FL","Tallahassee","Trader Joe's Tallahassee (763)","https://locations.traderjoes.com/fl/tallahassee/763","3425 Thomasville Rd","32309","US","+1 850-894-2538","30.504020","-84.250650"
764,"FL","Gainesville","Trader Joe's Gainesville (764)","https://locations.traderjoes.com/fl/gainesville/764","3724 SW Archer Rd","32608","US","+1 352-378-9321","29.623010","-82.379760"
765,"FL","Winter Park","Trader Joe's Winter Park (765)","https://locations.traderjoes.com/fl/winter-park/765","131 Orlando Ave.","32789","US","+1 407-622-0874","28.598260","-81.365680"
766,"FL","Tampa","Trader Joe's Tampa (766)","https://locations.traderjoes.com/fl/tampa/766","3808 W Swann Ave","33609","US","+1 813-872-6846","27.937280","-82.506350"
767,"FL","St. Petersburg","Trader Joe's St. Petersburg (767)","https://locations.traderjoes.com/fl/st-petersburg/767","2742 4th St N","33704","US","+1 727-824-0907","27.797440","-82.638960"
768,"FL","Orlando","Trader Joe's Orlando Dr. Phillips (768)","https://locations.traderjoes.com/fl/orlando/768","8323 Sand Lake Rd","32819","US","+1 407-345-0611","28.450650","-81.496460"
769,"FL","Jacksonville","Trader Joe's Jacksonville (769)","https://locations.traderjoes.com/fl/jacksonville/769","11112 San Jose Blvd","32223","US","+1 904-880-0582","30.173290","-81.628910"
770,"FL","Miami","Trader Joe's Pinecrest (770)","https://locations.traderjoes.com/fl/miami/770","9205 S Dixie Hwy","33156","US","+1 305-661-1432","25.684330","-80.312690"
771,"FL","Delray Beach","Trader Joe's Delray Beach (771)","https://locations.traderjoes.com/fl/delray-beach/771","1851 S Federal Hwy","33483","US","+1 561-278-1493","26.439220","-80.070340"
772,"FL","Palm Beach Gardens","Trader Joe's Palm Beach Gardens (772)","https://locations.traderjoes.com/fl/palm-beach-gardens/772","2560 PGA Blvd","33410","US","+1 561-514-6455","26.843930","-80.073870"
773,"FL","Boca Raton","Trader Joe's Boca Raton (773)","https://locations.traderjoes.com/fl/boca-raton/773","855 S Federal Hwy","33432","US","+1 561-338-5031","26.342280","-80.086400"
774,"FL","Wellington","Trader Joe's Wellington (774)","https://locations.traderjoes.com/fl/wellington/774","2877 South State Rd 7","33414","US","+1 561-656-1067","26.637960","-80.204260"
775,"FL","Pembroke Pines","Trader Joe's Pembroke Pines (775)","https://locations.traderjoes.com/fl/pembroke-pines/775","11960 Pines Blvd","33026","US","+1 954-432-0405","26.005980","-80.311000"
776,"FL","Fort Lauderdale","Trader Joe's Fort Lauderdale (776)","https://locations.traderjoes.com/fl/fort-lauderdale/776","1560 N Federal Hwy","33304","US","+1 954-537-3585","26.147250","-80.119300"
778,"FL","Davie","Trader Joe's Davie (778)","https://locations.traderjoes.com/fl/davie/778","2296 S University Dr","33324","US","+1 954-512-2968","26.092730","-80.251030"
779,"FL","Miami Beach","Trader Joe's Miami Beach (779)","https://locations.traderjoes.com/fl/miami-beach/779","1683 West Ave","33139","US","+1 305-534-4951","25.791780","-80.142150"
780,"FL","Bradenton","Trader Joe's Lakewood Ranch (780)","https://locations.traderjoes.com/fl/bradenton/780","8111 Cooper Creek Blvd","34201","US","+1 941-355-2394","27.393950","-82.452670"
781,"FL","Coral Gables","Trader Joe's Coral Gables (781)","https://locations.traderjoes.com/fl/coral-gables/781","211 S. Dixie Highway","33133","US","+1 305-442-5402","25.729450","-80.258250"
782,"FL","Coral Springs","Trader Joe's Coral Springs (782)","https://locations.traderjoes.com/fl/coral-springs/782","2796 N. University Drive","33065","US","+1 954-227-3407","26.264930","-80.250300"
784,"FL","Fort Myers","Trader Joe's Fort Myers (784)","https://locations.traderjoes.com/fl/fort-myers/784","4983 S. Cleveland Avenue","33907","US","+1 239-275-1712","26.587240","-81.869840"
785,"AL","Huntsville","Trader Joe's Huntsville (785)","https://locations.traderjoes.com/al/huntsville/785","1100 Mid City Dr NW","35806","US","+1 256-890-7156","34.740190","-86.665320"
786,"VA","Richmond","Trader Joe's Richmond (786)","https://locations.traderjoes.com/va/richmond/786","3000 Stony Point Rd","23235","US","+1 804-323-4292","37.538800","-77.564190"
787,"TN","Chattanooga","Trader Joe's Chattanooga (787)","https://locations.traderjoes.com/tn/chattanooga/787","2111 Gunbarrel Road","37421","US","+1 423-855-1310","35.032780","-85.154670"
788,"KY","Crestview Hills","Trader Joe's Crestview Hills Grocery (788)","https://locations.traderjoes.com/ky/crestview-hills/788","2780 Dixie Highway","41017","US","+1 859-331-0034","39.026110","-84.577200"
789,"KY","Crestview Hills","Trader Joe's Crestview Hills Wine Shop (789)","https://locations.traderjoes.com/ky/crestview-hills/789","2785 Dixie Highway","41017","US","+1 859-331-1472","39.030160","-84.573650"
790,"NC","Greenville","Trader Joe's Greenville (790)","https://locations.traderjoes.com/nc/greenville/790","3160 B Evans St","27834","US","+1 252-374-8457","35.572810","-77.383510"
791,"NC","Morrisville","Trader Joe's Morrisville (791)","https://locations.traderjoes.com/nc/morrisville/791","951 Morrisville Parkway","27560","US","+1 919-460-4449","35.809480","-78.817620"
792,"TN","Franklin","Trader Joe's Franklin - Cool Springs (792)","https://locations.traderjoes.com/tn/franklin/792","545 Cool Springs Blvd","37067","US","+1 615-771-3697","35.949840","-86.821240"
794,"FL","Miami","Trader Joe's Miami - Midtown (794)","https://locations.traderjoes.com/fl/miami/794","3191 NE 1st Ave","33137","US","+1 786-422-0606","25.806590","-80.193000"
795,"FL","Palm Harbor","Trader Joe's Palm Harbor (795)","https://locations.traderjoes.com/fl/palm-harbor/795","33591 US Hwy 19 N","34684","US","+1 727-436-4019","28.077910","-82.737390"
798,"GA","Alpharetta","Trader Joe's Alpharetta (798)","https://locations.traderjoes.com/ga/alpharetta/798","1605 Halcyon Days Trail","30005","US","+1 470-762-3171","34.110880","-84.224230"
799,"GA","Sandy Springs","Trader Joe's Sandy Springs (Chastain) (799)","https://locations.traderjoes.com/ga/sandy-springs/799","4600 Roswell Rd","30342","US","+1 770-678-7294","33.881040","-84.380280"
804,"MI","East Lansing","Trader Joe's East Lansing (804)","https://locations.traderjoes.com/mi/east-lansing/804","2755 E Grand River Ave","48823","US","+1 517-274-8581","42.726190","-84.452650"
809,"VA","West Springfield","Trader Joe's West Springfield (809)","https://locations.traderjoes.com/va/west-springfield/809","8402 Old Keene Mill Rd","22152","US","+1 703-202-8770","38.780050","-77.234550"
812,"SC","Mt. Pleasant","Trader Joe's Mt. Pleasant (Isle of Palms) (812)","https://locations.traderjoes.com/sc/mt-pleasant/812","1909 Hwy 17 N","29464","US","+1 854-223-5830","32.832190","-79.827370"
815,"TN","Murfreesboro","Trader Joe's Murfreesboro (815)","https://locations.traderjoes.com/tn/murfreesboro/815","2305 Medical Center Parkway","37129","US","","35.857740","-86.437110"
817,"VA","Leesburg","Trader Joe's Leesburg (817)","https://locations.traderjoes.com/va/leesburg/817","504 Fort Evans Rd NE","20176","US","+1 571-582-2209","39.108050","-77.530740"
819,"DC","Washington","Trader Joe's Washington - Friendship Heights (819)","https://locations.traderjoes.com/dc/washington/819","5335 Wisconsin Ave NW","20015","US","","38.960130","-77.084850"
820,"DC","Washington","Trader Joe's Washington - Brookland (820)","https://locations.traderjoes.com/dc/washington/820","701 Monroe St NE","20017","US","","38.932030","-76.995770"
838,"AL","Hoover","Trader Joe's Hoover (838)","https://locations.traderjoes.com/al/hoover/838","1771 Montgomery Hwy","35244","US","","33.379380","-86.802910"
